,ID,Name,Province,ClimateID,StationID,WMOID,TCID,LatitudeDD,LongitudeDD,Latitude,Longitude,Elevation,FirstYear,LastYear,HourlyFirstYr,HourlyLastYr,DailyFirstYr,DailyLastYr,MonthlyFirstYr,MonthlyLastYr
140,7509,MINAKI,Ontario,6035190,3965,NA,NA,49.98,-94.67,495900000,-944000000,335.3,1930,1967,NA,NA,1930,1967,1930,1967
141,7533,WERNER L,Ontario,6039450,9852,NA,NA,49.98,-94.67,495900000,-944000000,NA,NA,NA,NA,NA,NA,NA,NA,NA
142,7606,KENOGAMI DAM,Ontario,6044050,4015,NA,NA,49.92,-86.47,495500000,-862800000,312.4,1950,1958,NA,NA,1950,1958,1950,1958
143,7978,MOOSELAND,Ontario,607ND0R,9883,NA,NA,49.92,-84.25,495500000,-841500000,NA,NA,NA,NA,NA,NA,NA,NA,NA
144,7492,IGNACE FORESTRY,Ontario,6033695,7384,NA,NA,49.9,-91.58,495400000,-913500000,NA,NA,NA,NA,NA,NA,NA,NA,NA
145,7532,WATCOMB,Ontario,6039351,3974,NA,NA,49.9,-91.28,495400000,-911700000,411.5,1969,1977,NA,NA,1969,1977,1970,1977
146,7670,STURGEON LAKE,Ontario,6048145,4052,NA,NA,49.88,-90.97,495300000,-905800000,428.2,1972,1994,NA,NA,1972,1994,1972,1994
147,7879,ABITIBI CANYON,Ontario,6070027,4141,NA,NA,49.88,-81.57,495300000,-813400000,204.2,1931,1963,NA,NA,1931,1963,1931,1963
148,7510,DRYDEN RADAR,Ontario,6035650,44588,NA,XDR,49.86,-92.8,495130000,-924750000,0,NA,NA,NA,NA,NA,NA,NA,NA
149,7528,VERMILION BAY,Ontario,6039135,7393,NA,NA,49.85,-93.4,495100000,-932400000,374.6,NA,NA,NA,NA,NA,NA,NA,NA
150,7945,PINARD,Ontario,6076540,4173,NA,NA,49.85,-81.6,495100000,-813600000,231.6,1963,1982,NA,NA,1963,1982,1963,1982
151,7475,BARCLAY,Ontario,6030488,3951,NA,NA,49.83,-92.82,495000000,-924900000,381.3,1885,1896,NA,NA,1885,1896,1885,1896
152,7480,DRYDEN A,Ontario,6032119,3953,NA,YHD,49.83,-92.75,495000000,-924500000,412.7,1969,2005,1969,2005,1970,2005,1970,2004
153,7481,DRYDEN A (AUT),Ontario,6032120,29368,NA,NA,49.83,-92.74,494954000,-924439000,412.7,1999,2010,1999,2010,1999,2010,2004,2006
154,7483,DRYDEN REGIONAL,Ontario,6032125,48869,71527,YHD,49.83,-92.74,494939000,-924439000,412.7,2010,2016,2010,2016,2010,2016,NA,NA
155,7529,VERMILION BAY TCPL 52,Ontario,6039136,3973,NA,NA,49.83,-93.63,495000000,-933800000,385,1969,1984,NA,NA,1969,1984,1969,1984
156,7535,WINKLE LAKE,Ontario,6039554,9882,NA,NA,49.83,-92.83,495000000,-925000000,NA,NA,NA,NA,NA,NA,NA,NA,NA
157,7482,DRYDEN FORESTRY,Ontario,6032122,3954,NA,NA,49.82,-92.85,494900000,-925100000,373.1,1960,1968,NA,NA,1960,1968,1960,1968
158,7485,EAGLE RIVER,Ontario,6032192,3955,NA,NA,49.82,-93.22,494900000,-931300000,350,1986,1988,NA,NA,1986,1988,1986,1988
159,7494,INGOLF,Ontario,6033785,3958,NA,NA,49.82,-95.15,494900000,-950900000,363,1927,1941,NA,NA,1927,1941,1927,1941
160,7531,WATCOMB,Ontario,6039350,7395,NA,NA,49.82,-91.32,494900000,-911900000,NA,NA,NA,NA,NA,NA,NA,NA,NA
161,7498,KENORA,Ontario,6034070,3959,NA,NA,49.8,-94.53,494800000,-943200000,335.9,1883,1939,NA,NA,1883,1939,1883,1939
162,7499,KENORA RCS,Ontario,6034073,47307,71151,TKR,49.79,-94.38,494726000,-942240000,412.7,2008,2016,2008,2016,2008,2016,NA,NA
163,7500,KENORA A,Ontario,6034075,3960,71850,YQK,49.79,-94.37,494725005,-942155003,409.65,1938,2013,1953,2013,1938,2013,1938,2013
164,7501,KENORA A,Ontario,6034076,51137,71850,YQK,49.79,-94.36,494718000,-942147000,409.7,2013,2016,2013,2016,2013,2016,NA,NA
165,7479,DRYDEN,Ontario,6032117,3952,NA,NA,49.78,-92.83,494700000,-925000000,371.9,1914,1997,NA,NA,1914,1997,1914,1997
166,7486,EAGLE RIVER,Ontario,6032193,7382,NA,NA,49.78,-93.2,494700000,-931200000,363,NA,NA,NA,NA,NA,NA,NA,NA
167,7502,KENORA TCPL 49,Ontario,6034077,3961,NA,NA,49.78,-94.48,494700000,-942900000,340.2,1969,1991,NA,NA,1969,1991,1970,1991
168,7580,GERALDTON  CLDN,Ontario,6042714,30192,NA,NA,49.78,-85.94,494650000,-855619000,349.4,NA,NA,NA,NA,NA,NA,NA,NA
169,7582,GERALDTON A,Ontario,6042716,4003,71834,YGQ,49.78,-86.93,494658090,-865550050,348.4,1981,2015,1981,2015,1981,2015,1981,2014
170,7583,GERALDTON A,Ontario,6042717,53519,71834,YGQ,49.78,-86.94,494643000,-865619000,348.4,2015,2016,2015,2016,2015,2016,NA,NA
171,7584,GERALDTON A,Ontario,6042718,54240,NA,YGQ,49.78,-86.99,494643000,-865919000,348.4,2016,2016,2016,2016,NA,NA,NA,NA
172,7585,GERALDTON OVERLAP,Ontario,6042720,53878,NA,NA,49.78,-86.94,494643000,-865619000,348.4,NA,NA,NA,NA,NA,NA,NA,NA
173,7625,KLOTZ LAKE,Ontario,6044KN3,9864,NA,NA,49.78,-85.98,494700000,-855900000,NA,NA,NA,NA,NA,NA,NA,NA,NA
174,7496,KEEWATIN,Ontario,6034020,7386,NA,NA,49.77,-94.57,494600000,-943400000,331,NA,NA,NA,NA,NA,NA,NA,NA
175,7612,LONGLAC P AND P,Ontario,6044560,4020,NA,NA,49.77,-86.53,494600000,-863200000,342.6,1951,1969,NA,NA,1951,1969,1951,1969
176,7937,NAGAGAMI,Ontario,6075542,4169,NA,NA,49.77,-84.52,494600000,-843100000,243.8,1964,1969,NA,NA,1964,1969,1964,1969
177,7495,KALMAR,Ontario,6033940,7385,NA,NA,49.75,-94.92,494500000,-945500000,380.4,NA,NA,NA,NA,NA,NA,NA,NA
178,7511,OTTER LAKE,Ontario,6036115,7388,NA,NA,49.75,-91.35,494500000,-912100000,396.2,NA,NA,NA,NA,NA,NA,NA,NA
179,7527,VALORA,Ontario,6039130,3972,NA,NA,49.75,-91.22,494500000,-911300000,426.7,1957,1959,NA,NA,1957,1959,1957,1959
180,7541,KENORA CCG,Ontario,603M0G6,9820,NA,NA,49.75,-94.48,494500000,-942900000,323.1,NA,NA,NA,NA,NA,NA,NA,NA
181,7611,LONGLAC,Ontario,6044525,4019,NA,NA,49.75,-86.5,494500000,-863000000,317,1921,1957,NA,NA,1921,1957,1921,1957
182,7938,NAGAGAMI (AUT),Ontario,6075543,7633,71832,WNZ,49.75,-84.16,494448600,-840949300,264,1993,2016,1994,2016,1993,2016,2003,2006
183,7497,KENORA  WX RADIO,Ontario,6034069,30208,NA,NA,49.74,-94.35,494420000,-942042000,370,NA,NA,NA,NA,NA,NA,NA,NA
184,7530,WABIGOON,Ontario,6039170,7394,NA,NA,49.72,-92.58,494300000,-923500000,370.3,NA,NA,NA,NA,NA,NA,NA,NA
185,7717,SHIKAG LAKE,Ontario,604P697,9859,NA,NA,49.72,-90.87,494300000,-905200000,NA,NA,NA,NA,NA,NA,NA,NA,NA
186,7882,BONNER LAKE 2,Ontario,6070QKF,10193,NA,NA,49.72,-82.12,494300000,-820700000,246,NA,NA,NA,NA,NA,NA,NA,NA
187,7713,KATATOTA ISLAND (AUT),Ontario,604M002,10664,71468,WKK,49.71,-88.33,494247000,-881956000,261,1994,2006,1994,2006,1996,2006,NA,NA
188,7563,AUDEN,Ontario,6040LQQ,9858,NA,NA,49.7,-87.83,494200000,-875000000,NA,NA,NA,NA,NA,NA,NA,NA,NA
189,7581,GERALDTON,Ontario,6042715,4002,NA,NA,49.7,-86.95,494200000,-865700000,330.7,1967,1981,1967,1981,1967,1981,1967,1981
190,7586,GERALDTON FORESTRY,Ontario,6042723,4004,NA,NA,49.7,-86.87,494200000,-865200000,338.3,1948,1969,NA,NA,1948,1969,1948,1969
191,7640,OXALINE LAKE,Ontario,6046164,4035,NA,NA,49.7,-87.57,494200000,-873400000,331.3,1952,1956,NA,NA,1952,1956,1952,1956
192,7899,HEARST,Ontario,6073407,7626,NA,NA,49.7,-83.65,494200000,-833900000,246,NA,NA,NA,NA,NA,NA,NA,NA
193,7697,LITTLE FLATLAND ISLAND (AUT),Ontario,6049470,43104,71468,WKK,49.69,-88.31,494124000,-881821000,261,2005,2016,2005,2016,2005,2016,NA,NA
194,7587,GERALDTON ONT HYDRO,Ontario,6042755,4005,NA,NA,49.68,-86.95,494100000,-865700000,338.3,1950,1973,NA,NA,1950,1973,1950,1973
195,7487,ELA,Ontario,6032253,7979,NA,NA,49.67,-93.72,494000000,-934300000,369,NA,NA,NA,NA,NA,NA,NA,NA
196,7539,ELA,Ontario,603KKNB,7994,NA,NA,49.67,-93.72,494000000,-934300000,369,NA,NA,NA,NA,NA,NA,NA,NA
197,7540,ELA,Ontario,603KKNK,7980,NA,NA,49.67,-93.72,494000000,-934300000,369,NA,NA,NA,NA,NA,NA,NA,NA
198,7900,HEARST,Ontario,6073408,7627,NA,NA,49.67,-83.67,494000000,-834000000,246,NA,NA,NA,NA,NA,NA,NA,NA
199,7488,ELA CAPMON,Ontario,6032255,48849,NA,ELA,49.66,-93.73,493951001,-934358002,438,NA,NA,NA,NA,NA,NA,NA,NA
200,7513,RAWSON LAKE (AUT),Ontario,6036907,30455,71855,TRA,49.66,-93.73,493951001,-934358002,435,2003,2016,2005,2016,2003,2016,NA,NA
201,7512,RAWSON LAKE,Ontario,6036904,3966,NA,NA,49.65,-93.72,493900000,-934300000,358.1,1969,2014,NA,NA,1969,2014,1969,2006
202,7477,BASKET LAKE,Ontario,6030NNR,9862,NA,NA,49.63,-92.1,493800000,-920600000,NA,NA,NA,NA,NA,NA,NA,NA,NA
203,7484,DYMENT,Ontario,6032180,7381,NA,NA,49.63,-92.3,493800000,-921800000,411.5,NA,NA,NA,NA,NA,NA,NA,NA
204,7536,FEDERAL FISHERIES,Ontario,603BLP4,9853,NA,NA,49.63,-93.83,493800000,-935000000,NA,NA,NA,NA,NA,NA,NA,NA,NA
205,7549,ABITIBI CAMP 300,Ontario,6040022,3984,NA,NA,49.63,-89.75,493800000,-894500000,426.7,1978,1986,NA,NA,1978,1986,1978,1986
206,7514,RESERVE 40,Ontario,6037006,7389,NA,NA,49.62,-95.1,493700000,-950600000,326.7,NA,NA,NA,NA,NA,NA,NA,NA
207,7558,BEARDMORE,Ontario,6040572,3989,NA,NA,49.62,-87.95,493700000,-875700000,304.8,1973,1986,NA,NA,1973,1986,1973,1986
208,7568,CARAMAT,Ontario,6041192,10912,NA,NA,49.6,-86.15,493600000,-860900000,337.1,NA,NA,NA,NA,NA,NA,NA,NA
209,7925,MATTICE TCPL,Ontario,6075024,4164,NA,NA,49.6,-83.17,493600000,-831000000,233.2,1966,1995,NA,NA,1966,1995,1966,1995
210,7526,TACHE,Ontario,6038198,7392,NA,NA,49.58,-92.17,493500000,-921000000,416.7,NA,NA,NA,NA,NA,NA,NA,NA
211,7906,ISLAND FALLS,Ontario,6073840,4155,NA,NA,49.58,-81.38,493500000,-812300000,213,1955,1996,NA,NA,1955,1996,1955,1996
212,7557,BEARDMORE  WX RADIO,Ontario,6040571,30206,NA,NA,49.57,-87.97,493400000,-875828000,306,NA,NA,NA,NA,NA,NA,NA,NA
213,7668,STEVENS,Ontario,6048017,4051,NA,NA,49.53,-85.85,493200000,-855100000,324.6,1945,1955,NA,NA,1945,1955,1945,1955
214,7669,STEVENS FORESTRY,Ontario,6048018,7592,NA,NA,49.53,-85.85,493200000,-855100000,324.6,NA,NA,NA,NA,NA,NA,NA,NA
215,7493,IGNACE TCPL 58,Ontario,6033697,3957,NA,NA,49.48,-92,492900000,-920000000,473,1969,1993,NA,NA,1969,1993,1969,1993
216,7524,SIOUX NARROWS,Ontario,6037803,3970,NA,NA,49.48,-93.97,492900000,-935800000,410.6,1933,1956,NA,NA,1933,1956,1933,1956
217,7534,WHITEFISH BAY,Ontario,6039465,3975,NA,NA,49.48,-93.97,492900000,-935800000,410.6,1914,1946,NA,NA,1914,1946,1914,1946
218,7515,ROYAL ISLAND (AUT),Ontario,6037201,10899,71859,WTX,49.47,-94.76,492807000,-944547000,329,1994,2016,1994,2016,2016,2016,NA,NA
219,7516,SANDY POINT,Ontario,6037489,9868,NA,NA,49.47,-92.32,492800000,-921900000,NA,NA,NA,NA,NA,NA,NA,NA,NA
220,7596,HILLSPORT,Ontario,6043468,7584,NA,NA,49.43,-85.55,492600000,-853300000,315.5,NA,NA,NA,NA,NA,NA,NA,NA
221,7615,MACDIARMID,Ontario,6044735,4023,NA,NA,49.43,-88.15,492600000,-880900000,312.4,1926,1970,NA,NA,1926,1970,1926,1970
222,7685,TRAPPER L,Ontario,6048866,9895,NA,NA,49.43,-89.13,492600000,-890800000,NA,NA,NA,NA,NA,NA,NA,NA,NA
223,7491,IGNACE,Ontario,6033690,3956,NA,NA,49.42,-91.65,492500000,-913900000,446.5,1889,1971,NA,NA,1889,1971,1889,1971
224,7505,MARTIN,Ontario,6034998,9865,NA,NA,49.42,-91,492500000,-910000000,NA,NA,NA,NA,NA,NA,NA,NA,NA
225,7654,QUORN,Ontario,6046811,4042,NA,NA,49.42,-90.9,492500000,-905400000,444.7,1915,1960,NA,NA,1915,1960,1915,1960
226,7711,"DIVERSION L(C 58,55)",Ontario,604K0KP,9866,NA,NA,49.42,-87.12,492500000,-870700000,NA,NA,NA,NA,NA,NA,NA,NA,NA
227,7976,KAPUSKASING,Ontario,607LRNR,9885,NA,NA,49.42,-82.38,492500000,-822300000,NA,NA,NA,NA,NA,NA,NA,NA,NA
228,7910,KAPUSKASING A,Ontario,6073975,4157,NA,NA,49.41,-82.47,492450000,-822803000,226.5,1937,2014,1953,2014,1937,2014,1937,2014
229,7911,KAPUSKASING A,Ontario,6073976,52604,71831,YYU,49.41,-82.47,492442000,-822806000,226.5,2014,2016,2014,2016,2014,2016,NA,NA
230,7913,KAPUSKASING A,Ontario,6073978,54260,NA,YYU,49.41,-82.47,492442000,-822806000,226.5,2016,2016,2016,2016,NA,NA,NA,NA
231,7914,KAPUSKASING CDA ON,Ontario,6073980,30435,71299,XKA,49.41,-82.44,492423000,-822637000,218,2000,2016,2000,2016,2000,2016,2002,2006
232,7909,KAPUSKASING CDA,Ontario,6073960,4156,NA,NA,49.4,-82.43,492400000,-822600000,217.9,1918,2001,NA,NA,1918,2001,1918,2001
233,7525,SIOUX NARROWS,Ontario,6037804,3971,NA,NA,49.38,-94.07,492300000,-940400000,342.9,1980,1980,NA,NA,1980,1980,1980,1980
234,7880,BONNER LAKE,Ontario,6070QK6,4140,NA,NA,49.38,-82.12,492300000,-820725000,245,1990,2016,NA,NA,1990,2016,1990,2006
235,7881,BONNER LAKE CAPMON,Ontario,6070QKB,48428,NA,BON,49.38,-82.12,492300000,-820725000,245,NA,NA,NA,NA,NA,NA,NA,NA
236,7504,MANITOU LAKE,Ontario,6034893,7387,NA,NA,49.37,-92.6,492200000,-923600000,370.3,NA,NA,NA,NA,NA,NA,NA,NA
237,7548,ABITIBI CAMP 230,Ontario,6040020,3983,NA,NA,49.35,-89.37,492100000,-892200000,457.2,1969,1991,NA,NA,1969,1991,1969,1991
238,7506,MANITOU LAKE,Ontario,6034QRK,9876,NA,NA,49.32,-92.97,491900000,-925800000,NA,NA,NA,NA,NA,NA,NA,NA,NA
239,7559,BLACK STURGEON LAKE,Ontario,6040785,3990,NA,NA,49.32,-88.85,491900000,-885100000,253,1951,1968,NA,NA,1951,1968,1951,1968
240,7560,BLACK STURGEON LAKE 2,Ontario,6040786,3991,NA,NA,49.3,-88.8,491800000,-884800000,253,1968,1971,NA,NA,1968,1971,1968,1971
241,7645,PINE PORTAGE,Ontario,6046549,4038,NA,NA,49.3,-88.32,491800000,-881900000,233.2,1950,1968,NA,NA,1950,1968,1950,1968
242,7476,BENDING LAKE,Ontario,6030724,9861,NA,NA,49.28,-92.12,491700000,-920700000,NA,NA,NA,NA,NA,NA,NA,NA,NA
243,7508,MARTIN TCPL 60,Ontario,6035002,3964,NA,NA,49.28,-91.23,491700000,-911400000,470.6,1969,1984,NA,NA,1969,1984,1969,1984
244,7940,NORTHEAST ONTARIO RADAR,Ontario,6075620,44612,NA,XTI,49.28,-81.79,491648000,-814738000,0,NA,NA,NA,NA,NA,NA,NA,NA
245,7955,SMOOTH ROCK FALLS,Ontario,607785B,9896,NA,NA,49.28,-81.62,491700000,-813700000,NA,NA,NA,NA,NA,NA,NA,NA,NA
246,7569,CARAMAT,Ontario,6041193,3995,NA,NA,49.27,-85.83,491600000,-855000000,338.3,1949,1983,NA,NA,1949,1983,1949,1983
247,7588,GRAHAM A,Ontario,6042975,4006,NA,NA,49.27,-90.58,491600000,-903500000,503.2,1948,1967,1953,1967,1948,1967,1948,1967
248,7507,MARTIN,Ontario,6035000,3963,NA,NA,49.25,-91.13,491500000,-910800000,474,1957,1962,NA,NA,1957,1962,1957,1961
249,7542,MARTIN,Ontario,603M99R,9857,NA,NA,49.25,-91.12,491500000,-910700000,NA,NA,NA,NA,NA,NA,NA,NA,NA
250,7573,DIVERSION,Ontario,6042027,7583,NA,NA,49.25,-87.07,491500000,-870400000,312.4,NA,NA,NA,NA,NA,NA,NA,NA
251,7599,JARVIS LAKE,Ontario,6043870,4011,NA,NA,49.25,-87.82,491500000,-874900000,320,1952,1956,NA,NA,1952,1956,1952,1955
252,7638,OSCAR,Ontario,6045868,7404,NA,NA,49.25,-90.77,491500000,-904600000,486.5,NA,NA,NA,NA,NA,NA,NA,NA
253,7907,JACKSONBORO,Ontario,6073845,7628,NA,NA,49.25,-81.65,491500000,-813900000,234.4,NA,NA,NA,NA,NA,NA,NA,NA
254,7749,HORNEPAYNE,Ontario,6053570,4076,NA,NA,49.23,-84.8,491400000,-844800000,329.2,1917,1989,NA,NA,1917,1989,1917,1989
255,7712,DOG RIVER,Ontario,604K0MK,9893,NA,NA,49.22,-89.92,491300000,-895500000,NA,NA,NA,NA,NA,NA,NA,NA,NA
256,7616,MANITOU FALLS,Ontario,6044890,4024,NA,NA,49.2,-86.1,491200000,-860600000,NA,1948,1955,NA,NA,1948,1955,1948,1955
257,7750,HORNEPAYNE A,Ontario,6053575,4077,NA,NA,49.2,-84.77,491200000,-844600000,335,1990,1995,NA,NA,1990,1995,1990,1995
258,7566,CAMERON FALLS,Ontario,6041109,3994,NA,NA,49.15,-88.35,490900000,-882100000,228.6,1924,1998,NA,NA,1924,1998,1924,1998
259,7567,CAMERON FALLS (AUT),Ontario,6041110,27674,71291,XCA,49.15,-88.34,490914000,-882041000,232.6,1998,2016,2000,2016,1998,2016,1998,2006
260,7607,KILLALA LAKE,Ontario,6044115,4016,NA,NA,49.15,-86.47,490900000,-862800000,289.6,1945,1954,NA,NA,1945,1954,1945,1954
261,7617,MANITOUWADGE,Ontario,6044903,4025,NA,NA,49.15,-85.8,490900000,-854800000,332.2,1956,1995,NA,NA,1956,1995,1956,1995
262,7807,RUTUS LAKE (CAMP 95),Ontario,605PKNR,9890,NA,NA,49.15,-83.08,490900000,-830500000,NA,NA,NA,NA,NA,NA,NA,NA,NA
263,7903,HUNTA,Ontario,6073630,4152,NA,NA,49.12,-81.27,490700000,-811600000,274.3,1950,1973,NA,NA,1950,1973,1950,1973
264,7613,LONG LAKE CONTROL DAM,Ontario,6044595,4021,NA,NA,49.08,-87.05,490500000,-870300000,317,1950,1964,NA,NA,1950,1964,1950,1964
265,7456,MINE CENTRE,Ontario,602520K,9873,NA,NA,49.07,-93.92,490400000,-935500000,NA,NA,NA,NA,NA,NA,NA,NA,NA
266,7561,BLACK STURGEON RIVER,Ontario,6040790,3992,NA,NA,49.07,-88.62,490400000,-883700000,219.5,1957,1959,NA,NA,1957,1959,1958,1959
267,7767,OBA,Ontario,6055754,4086,NA,NA,49.07,-84.1,490400000,-840600000,331,1926,1946,NA,NA,1926,1946,1926,1946
268,7883,COCHRANE,Ontario,6071712,4142,NA,NA,49.07,-81.03,490400000,-810200000,274.9,1910,1993,NA,NA,1910,1993,1910,1993
269,7690,UPSALA,Ontario,6049096,4058,NA,NA,49.05,-90.47,490300000,-902800000,483.7,1947,1972,NA,NA,1947,1972,1947,1972
270,7691,UPSALA RADAR,Ontario,6049097,7986,NA,WIM,49.04,-90.41,490215000,-902430000,507.2,NA,NA,NA,NA,NA,NA,NA,NA
271,7689,UPSALA (AUT),Ontario,6049095,4057,71435,WDV,49.03,-90.47,490200000,-902800000,488.5,1972,2016,1994,2016,1973,2016,1972,2006
272,7692,UPSALA TCPL 62,Ontario,6049098,4059,NA,NA,49.03,-90.52,490200000,-903100000,492.9,1970,1986,NA,NA,1970,1986,1970,1986
273,7981,WADE LAKE,Ontario,607RAH2,9898,NA,NA,49.03,-80.6,490200000,-803600000,NA,NA,NA,NA,NA,NA,NA,NA,NA
274,7459,NESTOR FALLS,Ontario,6025579,7379,NA,NA,49.02,-93.48,490100000,-932900000,NA,NA,NA,NA,NA,NA,NA,NA,NA
275,7709,CAMP 603,Ontario,604JJMQ,9897,NA,NA,49.02,-88.27,490100000,-881600000,NA,NA,NA,NA,NA,NA,NA,NA,NA
276,7467,SPHENE LAKE,Ontario,602797Q,9881,NA,NA,49,-93.47,490000000,-932800000,NA,NA,NA,NA,NA,NA,NA,NA,NA
277,7632,NIPIGON,Ontario,6045665,4031,NA,NA,49,-88.25,490000000,-881500000,184.4,1886,1922,NA,NA,1886,1922,1886,1922
278,7701,PORTAGE LAKE,Ontario,604F5PQ,9880,NA,NA,49,-86,490000000,-860000000,NA,NA,NA,NA,NA,NA,NA,NA,NA
279,7884,COMMUTER CAMP 8,Ontario,607183A,9899,NA,NA,49,-79,490000000,-790000000,NA,NA,NA,NA,NA,NA,NA,NA,NA
280,7973,CAMP 80 (SF P&P) WAKUS,Ontario,607JJDR,9894,NA,NA,49,-82,490000000,-820000000,NA,NA,NA,NA,NA,NA,NA,NA,NA
281,7975,ISLAND FALLS,Ontario,607LQLR,9900,NA,NA,49,-81,490000000,-810000000,NA,NA,NA,NA,NA,NA,NA,NA,NA
282,7575,DOG RIVER,Ontario,6042045,3999,NA,NA,48.98,-89.9,485900000,-895400000,448.1,1957,1960,NA,NA,1957,1960,1957,1960
283,7595,HERON BAY SOUTH,Ontario,6043460,4010,NA,NA,48.98,-85.82,485900000,-854900000,297.2,1954,1954,NA,NA,1954,1954,1954,1954
284,7602,KAMA TOWER,Ontario,6043945,7402,NA,NA,48.97,-88.02,485800000,-880100000,195.7,NA,NA,NA,NA,NA,NA,NA,NA
285,7657,RED ROCK  WX RADIO,Ontario,6046991,30211,NA,NA,48.97,-88.31,485825000,-881820000,350,NA,NA,NA,NA,NA,NA,NA,NA
286,7659,SAVANNE,Ontario,6047615,4045,NA,NA,48.97,-90.2,485800000,-901200000,459,1884,1954,NA,NA,1884,1954,1884,1954
287,7438,BERGLAND,Ontario,6020727,3933,NA,NA,48.95,-94.35,485700000,-942100000,363.9,1980,1981,NA,NA,1980,1981,1980,1981
288,7545,ABITIBI CAMP 11,Ontario,6040010,3980,NA,NA,48.93,-89.35,485600000,-892100000,442,1978,1983,NA,NA,1978,1983,1978,1981
289,7547,ABITIBI CAMP 228,Ontario,6040018,3982,NA,NA,48.93,-89.25,485600000,-891500000,472.4,1969,1978,NA,NA,1969,1978,1969,1978
290,7921,LOWBUSH,Ontario,6074620,4160,NA,NA,48.92,-80.12,485500000,-800700000,270.4,1951,1966,NA,NA,1951,1966,1951,1966
291,7465,ROY MINE,Ontario,6027202,7380,NA,NA,48.88,-91.25,485300000,-911500000,NA,NA,NA,NA,NA,NA,NA,NA,NA
292,7642,PAYS PLAT FORESTRY,Ontario,6046283,4037,NA,NA,48.88,-87.53,485300000,-873200000,190.5,1944,1950,NA,NA,1944,1950,1944,1950
293,7704,ROSSPORT,Ontario,604GA89,7580,NA,NA,48.88,-87.47,485300000,-872800000,196,NA,NA,NA,NA,NA,NA,NA,NA
294,7641,PAYS PLAT,Ontario,6046281,4036,NA,NA,48.87,-87.6,485200000,-873600000,185.3,1952,1965,NA,NA,1952,1965,1952,1965
295,7720,TERRACE BAY,Ontario,604QKKR,9877,NA,NA,48.87,-87.6,485200000,-873600000,NA,NA,NA,NA,NA,NA,NA,NA,NA
296,7469,STRATTON ROEN,Ontario,6028127,3949,NA,NA,48.85,-94.02,485100000,-940100000,347.2,1978,1983,NA,NA,1978,1983,1978,1983
297,7546,ABITIBI CAMP 11,Ontario,6040011,3981,NA,NA,48.85,-89.12,485100000,-890700000,491,1983,1988,NA,NA,1983,1988,1983,1988
298,7673,SUPERIOR WEST RADAR,Ontario,6048210,44608,NA,XNI,48.85,-89.12,485113000,-890717000,0,NA,NA,NA,NA,NA,NA,NA,NA
299,7457,MOOSE LAKE,Ontario,6025407,3944,NA,NA,48.83,-91.6,485000000,-913600000,396.2,1950,1972,NA,NA,1950,1972,1950,1972
300,7597,HURKETT,Ontario,6043670,7400,NA,NA,48.83,-88.47,485000000,-882800000,185.9,NA,NA,NA,NA,NA,NA,NA,NA
301,7660,SAVANNE LAKE,Ontario,6047617,4046,NA,NA,48.83,-90.1,485000000,-900600000,479.5,1969,1969,NA,NA,1969,1969,1969,1969
302,7663,SCHREIBER FORESTRY,Ontario,6047628,7590,NA,NA,48.83,-87.25,485000000,-871500000,284.4,NA,NA,NA,NA,NA,NA,NA,NA
303,7577,DORION TCPL 70,Ontario,6042067,4001,NA,NA,48.82,-88.52,484900000,-883100000,192.6,1969,1984,NA,NA,1969,1984,1970,1984
304,7662,SCHREIBER,Ontario,6047627,4048,NA,NA,48.82,-87.27,484900000,-871600000,301.8,1893,1975,NA,NA,1893,1975,1893,1975
305,7675,TERRACE BAY A,Ontario,6048231,7593,NA,NA,48.82,-87.1,484900000,-870600000,289.6,1994,2007,1994,2007,1996,2007,1996,2006
306,7676,TERRACE BAY(AUT),Ontario,6048235,32393,NA,ZTJ,48.82,-87.1,484900000,-870600000,289.6,2002,2007,2002,2007,2003,2006,2003,2006
307,7922,LOWER STURGEON,Ontario,6074630,4161,NA,NA,48.82,-81.48,484900000,-812900000,246.9,1950,1967,NA,NA,1950,1967,1950,1967
308,7631,FORT FRANCES WX RADIO,Ontario,6045628,30210,NA,NA,48.81,-93.89,484818000,-935324000,407,NA,NA,NA,NA,NA,NA,NA,NA
309,7434,ATIKOKAN MARMION,Ontario,6020384,3931,NA,NA,48.8,-91.58,484800000,-913500000,442,1979,2007,NA,NA,1979,2007,1979,2006
310,7464,PATULLO,Ontario,6026B69,9878,NA,NA,48.8,-94.17,484800000,-941000000,NA,NA,NA,NA,NA,NA,NA,NA,NA
311,7639,NEYS PARK,Ontario,6045FBD,9879,NA,NA,48.8,-86.58,484800000,-863500000,NA,NA,NA,NA,NA,NA,NA,NA,NA
312,7664,SCHREIBER TOWER,Ontario,6047629,7591,NA,NA,48.8,-87.23,484800000,-871400000,341.4,NA,NA,NA,NA,NA,NA,NA,NA
313,7674,TERRACE BAY,Ontario,6048230,4054,NA,NA,48.8,-87.1,484800000,-870600000,289,1972,1999,NA,NA,1972,1999,1972,1999
314,7440,ATIKOKAN A,Ontario,6020CH1,9832,NA,NA,48.78,-91.63,484700000,-913800000,428.5,NA,NA,NA,NA,NA,NA,NA,NA
315,7468,STRATTON,Ontario,6028125,3948,NA,NA,48.78,-94.05,484700000,-940300000,358.1,1970,1986,NA,NA,1970,1986,1970,1986
316,7550,AGUASABON,Ontario,6040081,3985,NA,NA,48.78,-87.17,484700000,-871000000,189,1950,1972,NA,NA,1950,1972,1950,1972
317,7710,DORION,Ontario,604K066,9904,NA,NA,48.78,-88.65,484700000,-883900000,NA,NA,NA,NA,NA,NA,NA,NA,NA
318,7454,MINE CENTRE,Ontario,6025203,3943,NA,NA,48.77,-92.62,484600000,-923700000,342.9,1914,2005,NA,NA,1914,2005,1914,2005
319,7463,RAINY RIVER,Ontario,6026853,3946,NA,NA,48.77,-94.67,484600000,-944000000,328.9,1978,1980,NA,NA,1978,1980,1978,1980
320,7897,FREDERICKHOUSE LAKE DAM,Ontario,6072595,4148,NA,NA,48.77,-80.98,484600000,-805900000,283.5,1950,1961,NA,NA,1950,1961,1950,1961
321,7441,ATIKOKAN (AUT),Ontario,6020LPQ,10220,71747,WCH,48.76,-91.63,484540000,-913741000,389.3,1994,2016,1994,2016,2000,2016,2005,2006
322,7455,MINE CENTRE SOUTHWEST,Ontario,6025205,44343,NA,NA,48.76,-92.62,484535060,-923722000,361,2005,2016,NA,NA,2005,2016,2005,2006
323,7619,MARATHON AIRPORT,Ontario,6044961,4027,NA,YSP,48.76,-86.34,484520000,-862040000,315.5,1988,2007,2007,2007,1988,1999,1988,1999
324,7620,MARATHON A,Ontario,6044962,46527,NA,YSP,48.76,-86.34,484519000,-862040000,314.55,2007,2014,2007,2014,NA,NA,NA,NA
325,7621,MARATHON A,Ontario,6044963,52338,NA,YSP,48.76,-86.35,484526000,-862045000,314.6,2014,2016,2014,2016,NA,NA,NA,NA
326,7623,MARATHON A,Ontario,6044967,53138,NA,YSP,48.76,-86.35,484526000,-862045000,314.6,2014,2016,2014,2016,NA,NA,NA,NA
327,7432,ATIKOKAN,Ontario,6020379,3929,NA,NA,48.75,-91.62,484500000,-913700000,395.3,1966,1988,1966,1988,1966,1988,1966,1988
328,7446,EMO 2,Ontario,6022301,3937,NA,NA,48.75,-93.88,484500000,-935300000,335.3,1957,1968,NA,NA,1957,1968,1957,1968
329,7460,NEYS WX RADIO,Ontario,6025590,47647,NA,NA,48.75,-86.57,484450000,-863400000,443,NA,NA,NA,NA,NA,NA,NA,NA
330,7471,EMO HOSKINS,Ontario,602B300,3927,NA,NA,48.75,-93.85,484500000,-935100000,351.1,1978,1993,NA,NA,1978,1993,1978,1993
331,7643,BATTLE ISLAND,Ontario,6046285,26859,NA,WMF,48.75,-87.55,484500000,-873300000,197,1994,1997,1994,1997,NA,NA,NA,NA
332,7887,COUCHICHING FALLS,Ontario,6071911,7623,NA,NA,48.75,-80.28,484500000,-801700000,NA,NA,NA,NA,NA,NA,NA,NA,NA
333,7905,IROQUOIS FALLS,Ontario,6073810,4154,NA,NA,48.75,-80.67,484500000,-804000000,259.1,1913,1998,NA,NA,1913,1998,1913,1998
334,7963,TWIN FALLS,Ontario,6079040,4182,NA,NA,48.75,-80.58,484500000,-803500000,274.3,1955,1973,NA,NA,1955,1973,1955,1973
335,7433,ATIKOKAN CLI,Ontario,6020381,3930,NA,NA,48.73,-91.63,484400000,-913800000,391.4,1914,1971,NA,NA,1914,1971,1914,1971
336,7452,KAWENE,Ontario,6024010,3942,NA,NA,48.73,-91.2,484400000,-911200000,454.2,1935,1951,NA,NA,1935,1951,1935,1951
337,7472,RAINY RIVER-COOPER,Ontario,602FQ5L,6897,NA,NA,48.73,-94.62,484400000,-943700000,323,1991,1993,NA,NA,1991,1993,1991,1993
338,7644,PENINSULA,Ontario,6046376,7589,NA,NA,48.73,-86.38,484400000,-862300000,216.1,NA,NA,NA,NA,NA,NA,NA,NA
339,7655,RAITH TCPL 64,Ontario,6046856,4043,NA,NA,48.73,-89.87,484400000,-895200000,433.1,1969,1984,NA,NA,1969,1984,1969,1984
340,7948,PORQUIS JUNCTION A,Ontario,6076575,4175,NA,NA,48.73,-80.8,484400000,-804800000,307.5,1938,1955,NA,NA,1938,1955,1938,1955
341,7435,ATIKOKAN WX RADIO,Ontario,6020395,47667,NA,NA,48.72,-91.57,484308000,-913407000,469,NA,NA,NA,NA,NA,NA,NA,NA
342,7462,RAINY RIVER,Ontario,6026852,3945,NA,NA,48.72,-94.53,484300000,-943200000,316,1914,2003,NA,NA,1914,2003,1916,2003
343,7466,SLEEMAN,Ontario,6027825,3947,NA,NA,48.72,-94.42,484300000,-942500000,335.3,1964,1991,NA,NA,1964,1991,1964,1991
344,7618,MARATHON,Ontario,6044959,4026,NA,NA,48.72,-86.4,484300000,-862400000,189,1945,1984,NA,NA,1945,1984,1945,1984
345,7622,MARATHON FORESTRY,Ontario,6044965,7586,NA,NA,48.72,-86.38,484300000,-862300000,214.3,NA,NA,NA,NA,NA,NA,NA,NA
346,7470,STRATTON ROMYN,Ontario,6028128,3950,NA,NA,48.7,-94.17,484200000,-941000000,366.1,1978,2004,NA,NA,1978,2004,1978,2004
347,7574,DOG LAKE DAM,Ontario,6042036,3998,NA,NA,48.7,-89.62,484200000,-893700000,420,1923,1958,NA,NA,1923,1958,1923,1958
348,7593,HEMLO BATTLE MOUNTAIN,Ontario,6043452,4008,NA,NA,48.7,-85.88,484200000,-855300000,335,1985,2001,NA,NA,1985,2001,1985,2001
349,7626,MOBERT,Ontario,6045243,7587,NA,NA,48.7,-85.63,484200000,-853800000,333.5,NA,NA,NA,NA,NA,NA,NA,NA
350,7474,EMO RADBOURNE,Ontario,602K300,3928,NA,NA,48.68,-93.83,484100000,-935000000,350,1978,2002,NA,NA,1978,2002,1978,2002
351,7608,KING,Ontario,6044129,7585,NA,NA,48.68,-85.43,484100000,-852600000,335.3,NA,NA,NA,NA,NA,NA,NA,NA
352,7916,KIDD CREEK MINE,Ontario,6074100,4158,NA,NA,48.68,-81.37,484100000,-812200000,277.4,1968,1979,NA,NA,1968,1979,1968,1979
353,7594,HERON BAY,Ontario,6043458,4009,NA,NA,48.67,-86.28,484000000,-861700000,215.2,1886,1920,NA,NA,1886,1920,1886,1920
354,7447,FORT FRANCES RCS,Ontario,6022474,46507,71962,TAG,48.65,-93.44,483904000,-932620002,342,2007,2016,2007,2016,2007,2016,NA,NA
355,7449,FORT FRANCES A,Ontario,6022476,3939,NA,NA,48.65,-93.43,483900000,-932600000,342,1976,2011,NA,NA,1976,2011,1976,2006
356,7609,KINGFISHER LAKE,Ontario,6044138,4017,NA,NA,48.65,-89.07,483900000,-890400000,487.7,1975,1977,NA,NA,1975,1977,1975,1977
357,7636,ONE ISLAND LAKE,Ontario,6045781,6898,NA,NA,48.65,-89.42,483900000,-892500000,457.2,1992,1993,NA,NA,1992,1993,1992,1993
358,7436,BARWICK,Ontario,6020559,3932,NA,NA,48.63,-93.97,483800000,-935800000,335,1978,2016,NA,NA,1978,2016,1978,2006
359,7444,DEVLIN BELLAMY,Ontario,6022011,3935,NA,NA,48.63,-93.67,483800000,-934000000,347.2,1978,1992,NA,NA,1978,1992,1979,1992
360,7445,EMO,Ontario,6022300,3936,NA,NA,48.63,-93.8,483800000,-934800000,337.1,1922,1968,NA,NA,1922,1968,1922,1968
361,7614,LOON,Ontario,6044612,4022,NA,NA,48.63,-88.77,483800000,-884600000,323.1,1979,1980,NA,NA,1979,1980,1979,1980
362,7665,SHEBANDOWAN LAKE,Ontario,6047688,7407,NA,NA,48.63,-90.07,483800000,-900400000,449.6,NA,NA,NA,NA,NA,NA,NA,NA
363,7721,UPSALA,Ontario,604R093,9891,NA,NA,48.63,-90.07,483800000,-900400000,NA,NA,NA,NA,NA,NA,NA,NA,NA
364,7448,FORT FRANCES,Ontario,6022475,3938,NA,NA,48.62,-93.42,483700000,-932500000,343.2,1892,1995,NA,NA,1892,1995,1892,1995
365,7451,FORT FRANCES FORESTRY,Ontario,6022487,3941,NA,NA,48.62,-93.4,483700000,-932400000,342,1943,1965,NA,NA,1943,1965,1943,1964
366,7565,BURCHELL LAKE,Ontario,6041036,3993,NA,NA,48.62,-90.58,483700000,-903500000,464.8,1962,1967,NA,NA,1962,1967,1962,1967
367,7667,SLATE ISLAND,Ontario,6047810,4049,NA,NA,48.62,-87,483716000,-865945000,185.9,1966,1989,NA,NA,1966,1989,1966,1989
368,7686,TROUT LAKE,Ontario,6048951,4056,NA,NA,48.62,-89.37,483700000,-892200000,457.2,1980,1981,NA,NA,1980,1981,1980,1981
369,7885,CONNAUGHT,Ontario,6071855,4143,NA,NA,48.62,-80.92,483700000,-805500000,281.3,1962,1981,NA,NA,1962,1981,1962,1981
370,7886,CONNAUGHT,Ontario,6071860,48908,NA,NA,48.62,-80.9,483700000,-805400000,281.3,2010,2012,NA,NA,2010,2012,NA,NA
371,7651,PUKASKWA (AUT),Ontario,6046768,49848,71750,WCJ,48.61,-86.29,483628000,-861714000,191.5,2011,2016,2012,2016,2011,2016,NA,NA
372,7439,PUKASKWA WX RADIO,Ontario,6020783,30207,NA,NA,48.6,-86.29,483608000,-861707000,190,NA,NA,NA,NA,NA,NA,NA,NA
373,7605,KASHABOWIE,Ontario,6044000,4014,NA,NA,48.6,-90.6,483600000,-903600000,466.6,1956,1958,NA,NA,1956,1958,1956,1958
374,7652,PUKASKWA NATL PARK,Ontario,6046770,4041,NA,NA,48.6,-86.3,483600000,-861800000,192,1983,2005,NA,NA,1983,2005,1983,2005
375,7769,PETERBELL,Ontario,6056412,7602,NA,NA,48.6,-83.32,483600000,-831900000,315.8,NA,NA,NA,NA,NA,NA,NA,NA
376,7796,WHITE RIVER,Ontario,6059475,4104,NA,NA,48.6,-85.28,483600000,-851700000,378.9,1886,1976,1953,1976,1886,1976,1886,1976
377,7650,PUKASKWA (AUT),Ontario,6046767,10918,71750,WCJ,48.59,-86.29,483518000,-861741000,207.6,1994,2012,1994,2012,1996,2012,2005,2006
378,7564,BUDA,Ontario,6041033,7396,NA,NA,48.58,-90,483500000,-900000000,450.2,NA,NA,NA,NA,NA,NA,NA,NA
379,7578,FINMARK,Ontario,6042416,7398,NA,NA,48.58,-89.75,483500000,-894500000,359.7,NA,NA,NA,NA,NA,NA,NA,NA
380,7592,HAZELWOOD LAKE,Ontario,6043396,27292,NA,WHZ,48.58,-89.3,483500000,-891800000,445.6,NA,NA,NA,NA,NA,NA,NA,NA
381,7698,WHITE LAKE PARK,Ontario,6049DG1,9920,NA,NA,48.58,-85.42,483500000,-852500000,NA,NA,NA,NA,NA,NA,NA,NA,NA
382,7805,MISSINAIBA PARK,Ontario,605N20R,9902,NA,NA,48.58,-83.42,483500000,-832500000,NA,NA,NA,NA,NA,NA,NA,NA,NA
383,7915,KETTLE LAKES,Ontario,60740RM,9909,NA,NA,48.57,-80.87,483400000,-805200000,NA,NA,NA,NA,NA,NA,NA,NA,NA
384,7960,TIMMINS VICTOR POWER A,Ontario,6078285,4180,71739,YTS,48.57,-81.38,483411000,-812236000,294.7,1955,2012,1955,2012,1955,2012,1955,2011
385,7961,TIMMINS A,Ontario,6078286,50460,71739,YTS,48.57,-81.38,483414000,-812236000,294.7,2012,2016,2012,2016,2012,2016,NA,NA
386,7979,TIMMINS,Ontario,607QKPR,9906,NA,NA,48.57,-81.37,483400000,-812200000,0,NA,NA,NA,NA,NA,NA,NA,NA
387,7958,TIMMINS  CLDN,Ontario,6078281,30187,NA,NA,48.56,-81.39,483326000,-812325000,294.4,NA,NA,NA,NA,NA,NA,NA,NA
388,7959,TIMMINS CLIMATE,Ontario,6078282,47547,71193,TMS,48.56,-81.39,483326000,-812325000,294.4,2008,2016,2008,2016,2008,2016,NA,NA
389,7450,FORT FRANCES CDA EPF,Ontario,6022480,3940,NA,NA,48.55,-93.52,483300000,-933100000,353.6,1960,1962,NA,NA,1960,1962,1960,1962
390,7453,LITTLE FORKS,Ontario,6024453,7378,NA,NA,48.55,-93.7,483300000,-934200000,NA,NA,NA,NA,NA,NA,NA,NA,NA
391,7603,KAMINISTIKWIA,Ontario,6043949,4013,NA,NA,48.55,-89.4,483300000,-892400000,457.2,1973,1974,NA,NA,1973,1974,1973,1974
392,7718,SLATE ISLAND BUOY,Ontario,604PH0R,10214,NA,NA,48.54,-86.95,483224000,-865642000,183.2,NA,NA,NA,NA,NA,NA,NA,NA
393,7437,BEAVERHOUSE,Ontario,6020628,9884,NA,NA,48.53,-92.1,483200000,-920600000,NA,NA,NA,NA,NA,NA,NA,NA,NA
394,7458,MT BALDY WX RADIO,Ontario,6025450,47668,NA,NA,48.53,-89.12,483133000,-890712000,490,NA,NA,NA,NA,NA,NA,NA,NA
395,7604,KAMINISTIQUIA,Ontario,6043950,7403,NA,NA,48.53,-89.58,483200000,-893500000,310,NA,NA,NA,NA,NA,NA,NA,NA
396,7726,THUNDER BAY  WX RADIO,Ontario,604T009,30213,NA,NA,48.53,-89.12,483133000,-890712000,470,NA,NA,NA,NA,NA,NA,NA,NA
397,7923,MATHESON,Ontario,6075012,4162,NA,NA,48.53,-80.45,483200000,-802700000,259.1,1968,1972,NA,NA,1968,1972,1968,1972
398,7924,MATHESON ONT HYDRO,Ontario,6075013,4163,NA,NA,48.53,-80.47,483200000,-802800000,274,1983,1992,NA,NA,1983,1992,1983,1992
399,7443,DEVLIN,Ontario,6022010,3934,NA,NA,48.52,-93.75,483100000,-934500000,335,1978,1992,NA,NA,1978,1992,1978,1992
400,7953,SANDY FALLS,Ontario,6077475,4177,NA,NA,48.52,-81.43,483100000,-812600000,262.1,1950,1964,NA,NA,1950,1964,1950,1964
401,7576,DONA,Ontario,6042063,4000,NA,NA,48.5,-89.52,483000000,-893100000,317.3,1926,1958,NA,NA,1926,1958,1926,1958
402,7705,THUNDER BAY POMBER,Ontario,604H26A,3979,NA,NA,48.5,-89.22,483000000,-891300000,228.9,1979,1988,NA,NA,1979,1988,1979,1988
403,7742,ELSAS,Ontario,6052290,7597,NA,NA,48.5,-82.83,483000000,-825000000,332.8,NA,NA,NA,NA,NA,NA,NA,NA
404,7957,TIMMINS,Ontario,6078280,4179,NA,NA,48.5,-81.33,483000000,-812000000,335.3,1922,1957,NA,NA,1922,1957,1922,1957
405,7746,GRASSETT,Ontario,6052996,7599,NA,NA,48.48,-84.48,482900000,-842900000,377.3,NA,NA,NA,NA,NA,NA,NA,NA
406,7946,PORCUPINE,Ontario,6076570,7635,NA,NA,48.48,-81.3,482900000,-811800000,288.6,NA,NA,NA,NA,NA,NA,NA,NA
407,7956,TIMMINS  WX RADIO,Ontario,6078279,30228,NA,NA,48.48,-81.3,482837000,-811800000,308,NA,NA,NA,NA,NA,NA,NA,NA
408,7591,HAZELWOOD,Ontario,6043390,54378,NA,NA,48.47,-89.27,482800000,-891600000,322.5,2016,2016,NA,NA,2016,2016,NA,NA
409,7627,MYRT LAKE,Ontario,6045541,4028,NA,NA,48.47,-90.72,482800000,-904300000,518.2,1980,1985,NA,NA,1980,1985,1980,1985
410,7647,PORT ARTHUR,Ontario,6046589,7405,NA,NA,48.47,-89.32,482800000,-891900000,301.8,NA,NA,NA,NA,NA,NA,NA,NA
411,7743,FRANZ,Ontario,6052563,4072,NA,NA,48.47,-84.42,482800000,-842500000,373.4,1917,1960,NA,NA,1917,1960,1917,1960
412,7888,DOME,Ontario,6072052,7624,NA,NA,48.47,-81.25,482800000,-811500000,296.3,NA,NA,NA,NA,NA,NA,NA,NA
413,7947,PORCUPINE ONT HYDRO,Ontario,6076572,4174,NA,NA,48.47,-81.27,482800000,-811600000,298.7,1969,2001,NA,NA,1969,2001,1969,2001
414,7962,TIMMINS ONT HYDRO,Ontario,6078290,4181,NA,NA,48.47,-81.37,482800000,-812200000,307.8,1951,1969,NA,NA,1951,1969,1951,1969
415,7649,PORT ARTHUR FORESTRY,Ontario,6046592,7406,NA,NA,48.45,-89.2,482700000,-891200000,198.1,NA,NA,NA,NA,NA,NA,NA,NA
416,7658,PORT ARTHUR,Ontario,6.05E+91,7410,NA,NA,48.45,-89.23,482700000,-891400000,240.8,NA,NA,NA,NA,NA,NA,NA,NA
417,7707,THUNDER BAY PROVINCIAL PAPER,Ontario,604HK61,3978,NA,NA,48.45,-89.17,482700000,-891000000,184.4,1990,1990,NA,NA,1990,1990,1990,1990
418,7744,FRANZ FORESTRY,Ontario,6052565,4073,NA,NA,48.45,-84.4,482700000,-842400000,371.6,1952,1952,NA,NA,NA,NA,1952,1952
419,7610,LAKEHEAD UNIVERSITY,Ontario,6044298,4018,NA,NA,48.43,-89.27,482600000,-891600000,210.3,1968,2002,NA,NA,1968,2002,1968,2002
420,7646,PORT ARTHUR,Ontario,6046588,4039,NA,NA,48.43,-89.22,482600000,-891300000,195.1,1877,1941,NA,NA,1877,1941,1877,1941
421,7722,NORTHERN ONTARIO EER,Ontario,604S001,26912,NA,XQT,48.43,-89.22,482600000,-891300000,0,2001,2015,2001,2015,NA,NA,NA,NA
422,7637,THUNDER BAY RSB,Ontario,6045782,10674,NA,NA,48.42,-89.22,482500000,-891300000,186.7,NA,NA,NA,NA,NA,NA,NA,NA
423,7648,PORT ARTHUR CKPR,Ontario,6046590,4040,NA,NA,48.42,-89.27,482500000,-891600000,188.1,1959,1963,NA,NA,1959,1963,1959,1963
424,7681,THUNDER BAY BURWOOD,Ontario,6048266,44324,NA,NA,48.41,-89.28,482450200,-891641700,200,2005,2016,NA,NA,2005,2016,2005,2006
425,7579,FORT WILLIAM,Ontario,6042498,7399,NA,NA,48.4,-89.23,482400000,-891400000,186.8,NA,NA,NA,NA,NA,NA,NA,NA
426,7601,KAKABEKA FALLS,Ontario,6043930,4012,NA,NA,48.4,-89.62,482400000,-893700000,278,1908,1977,NA,NA,1908,1977,1908,1977
427,7706,THUNDER BAY WPCP,Ontario,604HBFA,3977,NA,NA,48.4,-89.23,482400000,-891400000,184.4,1960,1989,NA,NA,1960,1989,1960,1989
428,7624,MARIE LOUISE LAKE,Ontario,6044974,27291,NA,WLK,48.37,-88.8,482200000,-884800000,239.9,1997,1997,1997,1997,NA,NA,NA,NA
429,7677,THUNDER BAY,Ontario,6048260,49389,71072,YQT,48.37,-89.32,482219000,-891918000,199.3,2012,2016,2012,2016,2012,2016,NA,NA
430,7678,THUNDER BAY A,Ontario,6048261,4055,NA,YQT,48.37,-89.33,482210000,-891938038,199,1941,2012,1953,2012,1941,2004,1941,2004
431,7679,THUNDER BAY A,Ontario,6048262,50132,NA,YQT,48.37,-89.32,482219000,-891918000,199.3,2012,2016,2012,2016,NA,NA,NA,NA
432,7680,THUNDER BAY AWOS,Ontario,6048264,30667,71749,ZQT,48.37,-89.32,482200000,-891900000,199.3,1994,2012,NA,NA,1994,2012,2004,2006
433,7682,THUNDER BAY CS,Ontario,6048268,30682,71667,ZTB,48.37,-89.33,482210000,-891938000,199.4,2000,2016,2000,2016,2003,2016,2003,2006
434,7683,THUNDER BAY AIRPORT MAINTAIR,Ontario,6048270,42523,NA,NA,48.37,-89.32,482216038,-891858056,194.1,2003,2005,NA,NA,2003,2005,2003,2005
435,7695,WELCOME ISLAND (AUT),Ontario,6049443,4061,71751,WEC,48.37,-89.12,482209000,-890710000,211.4,1967,2016,1994,2016,1967,2016,1967,1985
436,7723,THUNDER BAY A FIREHALL,Ontario,604S003,27084,NA,NA,48.37,-89.32,482200000,-891900000,199,1995,2016,NA,NA,1995,2016,1995,2006
437,7725,THUNDER BAY  CLDN,Ontario,604T002,30194,NA,YQT,48.37,-89.33,482209000,-891939000,199,NA,NA,NA,NA,NA,NA,NA,NA
438,7949,RAMORE  WX RADIO,Ontario,6076869,30223,NA,NA,48.37,-80.27,482223000,-801622000,385,NA,NA,NA,NA,NA,NA,NA,NA
439,7589,FLINT,Ontario,6042MJ7,3997,NA,NA,48.35,-89.68,482100000,-894100000,274,1979,2014,NA,NA,1979,2014,1979,2006
440,7966,WAWAITIN,Ontario,6079415,4184,NA,NA,48.35,-81.4,482100000,-812400000,271.3,1913,1965,NA,NA,1913,1965,1913,1965
441,7666,SILVER ISLET,Ontario,6047715,7408,NA,NA,48.33,-88.75,482000000,-884500000,193.2,NA,NA,NA,NA,NA,NA,NA,NA
442,7803,DUBREUILVILLE (HOBON),Ontario,605KJK4,9914,NA,NA,48.33,-84.53,482000000,-843200000,NA,NA,NA,NA,NA,NA,NA,NA,NA
443,7894,ELK LAKE,Ontario,6072257,7625,NA,NA,48.33,-80.27,482000000,-801600000,NA,NA,NA,NA,NA,NA,NA,NA,NA
444,7950,RAMORE TS,Ontario,6076870,4176,NA,NA,48.33,-80.43,482000000,-802600000,286.5,1960,1966,NA,NA,1960,1966,1960,1966
445,7688,THUNDER BAY MCS CENTRE,Ontario,6048K6J,4050,NA,NA,48.32,-89.38,481900000,-892300000,231.6,1980,1984,NA,NA,1980,1984,1980,1984
446,7759,MISSANABIE,Ontario,6055209,4082,NA,NA,48.32,-84.08,481900000,-840500000,334.7,1889,1902,NA,NA,1889,1902,1889,1902
447,7687,TROWBRIDGE (AUT),Ontario,6048955,7977,NA,WAB,48.3,-88.87,481800000,-885200000,218,1994,2000,1994,2000,1994,2000,NA,NA
448,7696,WHITEFISH LAKE,Ontario,6049466,4062,NA,NA,48.28,-89.92,481700000,-895500000,399,1980,2008,NA,NA,1980,2008,1980,2006
449,7708,BIG THUNDER,Ontario,604I261,26860,NA,NA,48.28,-89.38,481700000,-892300000,298.8,1995,1995,1995,1995,NA,NA,NA,NA
450,7442,CACHE BAY,Ontario,6021067,9887,NA,NA,48.25,-91.67,481500000,-914000000,NA,NA,NA,NA,NA,NA,NA,NA,NA
451,7828,FOLEYET,Ontario,6062425,4115,NA,NA,48.25,-82.43,481500000,-822600000,328.6,1931,1974,NA,NA,1931,1974,1931,1973
452,7684,TRANQUILLO RIDGE,Ontario,6048864,6899,NA,NA,48.23,-89.52,481400000,-893100000,317,1991,2007,NA,NA,1991,2007,1991,2006
453,7834,MANVILLE REEVES,Ontario,6064942,4119,NA,NA,48.22,-82.08,481300000,-820500000,335.3,1973,1975,NA,NA,1973,1975,1973,1975
454,7918,KIRKLAND LAKE A,Ontario,6074210,7982,NA,YKX,48.22,-79.98,481300000,-795900000,353.6,NA,NA,NA,NA,NA,NA,NA,NA
455,7473,CABIN 16,Ontario,602J0FF,9886,NA,NA,48.17,-91.53,481000000,-913200000,NA,NA,NA,NA,NA,NA,NA,NA,NA
456,7633,NOLALU,Ontario,6045675,4032,NA,NA,48.15,-89.88,480900000,-895300000,381,1973,1980,NA,NA,1973,1980,1973,1980
457,7653,PUKASKWA RIVER,Ontario,6046773,10583,NA,NA,48.15,-85.8,480900000,-854800000,250,NA,NA,NA,NA,NA,NA,NA,NA
458,7736,DALTON,Ontario,6051R65,4066,NA,NA,48.15,-84.03,480900000,-840200000,342.9,1977,1979,NA,NA,1977,1979,1977,1979
459,7917,KIRKLAND LAKE,Ontario,6074209,4159,NA,NA,48.15,-80,480900000,-800000000,324,1950,1996,NA,NA,1950,1996,1950,1996
460,7919,KIRKLAND LAKE CS,Ontario,6074211,27535,71301,XKI,48.15,-80,480900000,-800000000,324,1997,2016,2001,2016,1997,2016,1997,2006
461,7965,VIRGINIATOWN,Ontario,6079150,7638,NA,NA,48.15,-79.52,480900000,-793100000,356,NA,NA,NA,NA,NA,NA,NA,NA
462,7635,NORTH LAKE,Ontario,6045711,4034,NA,NA,48.13,-90.57,480800000,-903400000,478.8,1921,1941,NA,NA,1921,1941,1921,1941
463,7634,NOLALU SSW22,Ontario,6045676,4033,NA,NA,48.1,-89.88,480600000,-895300000,349.9,1979,1985,NA,NA,1979,1985,1979,1985
464,7702,PIGEON RIVER,Ontario,604FNL6,3976,NA,NA,48.08,-89.63,480500000,-893800000,289.6,1970,1978,NA,NA,1970,1978,1970,1978
465,7747,HAWK JUNCTION,Ontario,6053391,4074,NA,NA,48.08,-84.55,480500000,-843300000,327.7,1969,1971,NA,NA,1969,1971,1969,1971
466,7977,KIRKLAND LAKE,Ontario,607MK0Q,9912,NA,NA,48.08,-80.08,480500000,-800500000,NA,NA,NA,NA,NA,NA,NA,NA,NA
467,7786,STEEP HILL FALLS,Ontario,6058010,4098,NA,NA,48.07,-84.8,480400000,-844800000,335.3,1915,1939,NA,NA,1915,1939,1915,1939
468,7461,PRAIRIE PORTAGE,Ontario,6026704,9888,NA,NA,48.05,-91.43,480300000,-912600000,NA,NA,NA,NA,NA,NA,NA,NA,NA
469,7926,MISTINIKON LAKE DAM,Ontario,6075211,4165,NA,NA,48.05,-80.72,480300000,-804300000,320,1950,1960,NA,NA,1950,1960,1950,1960
470,7837,MATTAGAMI LAKE DAM,Ontario,6065015,4122,NA,NA,48.02,-81.55,480100000,-813300000,327.7,1950,1957,NA,NA,1950,1957,1950,1957
471,7952,ROUND LAKE,Ontario,6077198,7637,NA,NA,48.02,-80.03,480100000,-800200000,NA,NA,NA,NA,NA,NA,NA,NA,NA
472,7793,WAWA,Ontario,6059409,4103,NA,NA,48,-84.8,480000000,-844800000,297.2,1969,1984,NA,NA,1969,1984,1969,1984
473,7794,WAWA HEADQUARTERS,Ontario,6059410,7605,NA,NA,48,-84.75,480000000,-844500000,292.6,NA,NA,NA,NA,NA,NA,NA,NA
474,7804,HAWK JUNCTION,Ontario,605LLR0,9922,NA,NA,48,-84,480000000,-840000000,NA,NA,NA,NA,NA,NA,NA,NA,NA
475,7872,ELSAS,Ontario,606KKQR,9903,NA,NA,48,-82,480000000,-820000000,NA,NA,NA,NA,NA,NA,NA,NA,NA
476,7980,WARREN'S MILL,Ontario,607R290,9910,NA,NA,48,-81,480000000,-810000000,NA,NA,NA,NA,NA,NA,NA,NA,NA
477,7791,WAWA A,Ontario,6059407,52818,71738,YXZ,47.97,-84.79,475801000,-844711000,287.7,2014,2016,2014,2016,2014,2016,NA,NA
478,7792,WAWA (AUT),Ontario,6059408,4102,NA,WXZ,47.97,-84.78,475800000,-844700000,287.1,1940,2015,1994,2015,1940,2006,1940,2006
479,7795,WAWA A,Ontario,6059413,52998,NA,YXZ,47.97,-84.79,475801000,-844711000,287.7,2014,2016,2014,2016,NA,NA,NA,NA
480,7797,WAWA A,Ontario,6059D09,4099,NA,NA,47.97,-84.78,475800000,-844700000,287.1,1977,2014,1977,2014,1977,2014,1977,2014
481,7800,MICHIPICOTEN HARBOUR,Ontario,6.05E+97,9043,NA,NA,47.95,-84.88,475700000,-845300000,NA,NA,NA,NA,NA,NA,NA,NA,NA
482,7748,HIGH FALLS,Ontario,6053463,4075,NA,NA,47.92,-84.72,475500000,-844300000,221,1976,1989,NA,NA,1976,1989,1976,1989
483,7838,MATTAGAMI PATROL,Ontario,6065020,4123,NA,NA,47.9,-81.55,475400000,-813300000,329.2,1957,1961,NA,NA,1957,1961,1957,1961
484,7758,MICHIPICOTEN FALLS,Ontario,6055095,4081,NA,NA,47.88,-84.63,475300000,-843800000,199,1882,1928,NA,NA,1882,1928,1882,1928
485,7904,INDIAN CHUTE,Ontario,6073750,4153,NA,NA,47.85,-80.45,475100000,-802700000,292.6,1950,1972,NA,NA,1950,1972,1950,1972
486,7817,CHAPLEAU,Ontario,6061358,4109,NA,NA,47.83,-83.43,475000000,-832600000,428.2,1965,1976,1965,1976,1965,1976,1965,1976
487,7818,CHAPLEAU 2,Ontario,6061359,4110,NA,NA,47.83,-83.43,475000000,-832600000,431.6,1886,1966,NA,NA,1886,1966,1886,1966
488,7819,CHAPLEAU A,Ontario,6061361,4111,NA,NA,47.82,-83.35,474912000,-832048000,448.06,1978,2015,1994,2015,1978,2015,1978,2014
489,7820,CHAPLEAU A,Ontario,6061362,53602,71642,YLD,47.82,-83.35,474913000,-832049000,448.1,2015,2016,2015,2016,2015,2016,NA,NA
490,7821,CHAPLEAU A,Ontario,6061365,53603,NA,YLD,47.82,-83.35,474913000,-832049000,448.1,2015,2016,2015,2016,NA,NA,NA,NA
491,7874,GOGAMA,Ontario,606KQNR,9929,NA,NA,47.82,-81.72,474900000,-814300000,NA,NA,NA,NA,NA,NA,NA,NA,NA
492,7895,ENGLEHART,Ontario,6072325,4146,NA,NA,47.82,-79.9,474900000,-795400000,251.5,1948,2000,NA,NA,1948,2000,1948,2000
493,7901,HEASLIP,Ontario,6073420,4150,NA,NA,47.8,-79.83,474800000,-795000000,221.9,1928,1967,NA,NA,1928,1967,1928,1967
494,7775,SAND LAKE,Ontario,6057437,4090,NA,NA,47.78,-84.53,474700000,-843200000,372.5,1954,1959,NA,NA,1954,1956,1954,1959
495,7755,LAKE SUPERIOR PROVINCIAL PARK,Ontario,6054425,51958,71640,TLS,47.72,-84.81,474323000,-844851000,400.62,2013,2016,2013,2016,2013,2016,NA,NA
496,7974,ELK LAKE,Ontario,607KKNF,9933,NA,NA,47.72,-80.27,474300000,-801600000,NA,NA,NA,NA,NA,NA,NA,NA,NA
497,7771,RED ROCK,Ontario,605699D,9939,NA,NA,47.7,-84.82,474200000,-844900000,NA,NA,NA,NA,NA,NA,NA,NA,NA
498,7890,EARLTON A,Ontario,6072223,49489,71684,YXR,47.7,-79.85,474142000,-795056000,243.8,2011,2016,2011,2016,2011,2016,NA,NA
499,7891,EARLTON AWOS,Ontario,6072224,30246,NA,NA,47.7,-79.85,474142000,-795056000,243.4,2000,2011,2000,2011,2000,2011,2004,2006
500,7892,EARLTON A,Ontario,6072225,4145,NA,YXR,47.7,-79.85,474200000,-795100000,243.2,1938,2005,1953,2005,1938,2005,1938,2004
501,7893,EARLTON CLIMATE,Ontario,6072230,47687,71213,TXR,47.7,-79.85,474142000,-795056000,243.4,2008,2016,2008,2016,2008,2016,NA,NA
502,7830,GOGAMA TREE NURSERY,Ontario,6062860,4117,NA,NA,47.68,-81.72,474100000,-814300000,352,1989,1992,NA,NA,1989,1992,1989,1992
503,7908,JUDGE,Ontario,6073884,7629,NA,NA,47.62,-79.53,473700000,-793200000,NA,NA,NA,NA,NA,NA,NA,NA,NA
504,7831,FLAME LAKE,Ontario,6062DAP,9928,NA,NA,47.58,-83.42,473500000,-832500000,NA,NA,NA,NA,NA,NA,NA,NA,NA
505,7849,SHINING TREE,Ontario,606769Q,9932,NA,NA,47.58,-81.42,473500000,-812500000,NA,NA,NA,NA,NA,NA,NA,NA,NA
506,7862,SULTAN,Ontario,606816C,9925,NA,NA,47.58,-82.77,473500000,-824600000,NA,NA,NA,NA,NA,NA,NA,NA,NA
507,7871,RAMSEY,Ontario,606FQPM,9927,NA,NA,47.58,-83.42,473500000,-832500000,NA,NA,NA,NA,NA,NA,NA,NA,NA
508,7873,FELIX,Ontario,606KLG4,9931,NA,NA,47.58,-81.42,473500000,-812500000,NA,NA,NA,NA,NA,NA,NA,NA,NA
509,7889,DYMOND ONT HYDRO,Ontario,6072183,4144,NA,NA,47.52,-79.68,473100000,-794100000,198.1,1973,1998,NA,NA,1973,1998,1973,1998
510,7939,NEW LISKEARD,Ontario,6075594,4170,NA,NA,47.5,-79.67,473000000,-794000000,194.2,1923,1984,NA,NA,1923,1984,1923,1984
511,7845,RAMSEY 2,Ontario,6066877,4128,NA,NA,47.47,-81.87,472800000,-815200000,402,1984,1986,NA,NA,1984,1986,1984,1984
512,7843,RAMSAY,Ontario,6066873,4126,NA,NA,47.45,-82.33,472700000,-822000000,429.8,1973,1983,NA,NA,1973,1983,1973,1983
513,7898,HAILEYBURY,Ontario,6073138,4149,NA,NA,47.45,-79.63,472700000,-793800000,189,1893,1977,NA,NA,1893,1977,1893,1977
514,7844,RAMSEY,Ontario,6066875,4127,NA,NA,47.42,-82.32,472500000,-821900000,426.1,1948,1967,NA,NA,1948,1967,1948,1967
515,7570,CARIBOU ISLAND,Ontario,6041221,3996,NA,NA,47.33,-85.83,472000000,-855000000,186.5,1935,1988,NA,NA,1935,1988,1935,1988
516,7571,CARIBOU ISLAND (AUT),Ontario,6041222,7582,71433,WCI,47.33,-85.83,472000000,-855000000,187,1993,2016,1994,2016,1993,2016,NA,NA
517,7745,FRATER,Ontario,6052575,7598,NA,NA,47.33,-84.55,472000000,-843300000,445.3,NA,NA,NA,NA,NA,NA,NA,NA
518,7811,BISCOTASING,Ontario,6060773,4107,NA,NA,47.3,-82.1,471800000,-820600000,406.9,1914,2000,NA,NA,1914,2000,1914,2000
519,7846,RUEL,Ontario,6067211,4129,NA,NA,47.3,-81.45,471800000,-812700000,409.7,1915,1959,NA,NA,1915,1959,1915,1959
520,7902,HOUND CHUTE,Ontario,6073600,4151,NA,NA,47.3,-79.7,471800000,-794200000,278.9,1950,1969,NA,NA,1950,1969,1950,1969
521,7763,MONTREAL FALLS,Ontario,6055302,4085,NA,NA,47.27,-84.43,471600000,-842600000,306.3,1976,1999,NA,NA,1976,1999,1976,1999
522,7762,MONTREAL FALLS,Ontario,6055300,4084,NA,NA,47.25,-84.4,471500000,-842400000,408.4,1932,1955,NA,NA,1932,1955,1932,1955
523,7764,MONTREAL RIVER (AUT),Ontario,6055378,41595,NA,ZGJ,47.25,-84.6,471450000,-843545000,534.9,2000,2007,2000,2007,2003,2006,2003,2006
524,7765,MONTREAL RIVER  WX RADIO,Ontario,6055381,30209,NA,NA,47.25,-84.6,471452000,-843545000,534,NA,NA,NA,NA,NA,NA,NA,NA
525,7766,MONTREAL RIVER RADAR,Ontario,6055382,7996,NA,WGJ,47.25,-84.6,471450000,-843545000,459,NA,NA,NA,NA,NA,NA,NA,NA
526,7964,UPPER NOTCH,Ontario,6079068,4183,NA,NA,47.25,-79.58,471500000,-793500000,240.8,1950,1971,NA,NA,1950,1971,1950,1971
527,7927,MONTREAL RIVER,Ontario,6075379,4166,NA,NA,47.12,-79.48,470700000,-792900000,182.9,1910,1967,NA,NA,1910,1967,1910,1967
528,7727,ALGOMA,Ontario,6050179,7992,NA,NA,47.1,-84.1,470600000,-840600000,369,NA,NA,NA,NA,NA,NA,NA,NA
529,7728,ALGOMA,Ontario,6050180,7974,NA,NA,47.1,-84.1,470600000,-840600000,369,NA,NA,NA,NA,NA,NA,NA,NA
530,8026,TIMAGAMI FORESTRY,Ontario,6088272,7649,NA,NA,47.1,-79.77,470600000,-794600000,NA,NA,NA,NA,NA,NA,NA,NA,NA
531,8001,LAKE TIMAGAMI,Ontario,6084305,7643,NA,NA,47.08,-80.08,470500000,-800500000,295,NA,NA,NA,NA,NA,NA,NA,NA
532,8025,TIMAGAMI,Ontario,6088271,4206,NA,NA,47.08,-79.85,470500000,-795100000,350.5,1966,1973,NA,NA,1966,1973,1966,1973
533,7729,ALGOMA CAPMON,Ontario,6050182,48988,NA,ALG,47.04,-84.38,470211000,-842244000,411,NA,NA,NA,NA,NA,NA,NA,NA
534,7757,MAMAINSE,Ontario,6054885,7601,NA,NA,47.03,-84.78,470200000,-844700000,NA,NA,NA,NA,NA,NA,NA,NA,NA
535,7822,CHINIGUCHI LAKE,Ontario,6061505,7608,NA,NA,47,-81.15,470000000,-810900000,395.9,NA,NA,NA,NA,NA,NA,NA,NA
536,7987,BEAR ISLAND,Ontario,6080577,4190,NA,NA,46.98,-80.08,465900000,-800500000,293.8,1916,1962,NA,NA,1916,1962,1916,1962
537,7772,PANCAKE BAY,Ontario,6056BC3,9937,NA,NA,46.97,-84.68,465800000,-844100000,NA,NA,NA,NA,NA,NA,NA,NA,NA
538,7801,PESHU LAKE,Ontario,605FLQF,9944,NA,NA,46.97,-83.17,465800000,-831000000,NA,NA,NA,NA,NA,NA,NA,NA,NA
539,7832,GRAVEYARD LAKE,Ontario,6063002,7611,NA,NA,46.97,-80.65,465800000,-803900000,305.1,NA,NA,NA,NA,NA,NA,NA,NA
540,8034,NORTH MILNE  WX RADIO,Ontario,608M003,30227,NA,NA,46.97,-79.77,465759000,-794620000,391,NA,NA,NA,NA,NA,NA,NA,NA
541,8027,TIMAGAMI ISLAND,Ontario,6088274,7650,NA,NA,46.95,-80.05,465700000,-800300000,292.6,NA,NA,NA,NA,NA,NA,NA,NA
542,7951,RANGER LAKE,Ontario,6076884,7636,NA,NA,46.92,-83.5,465500000,-833000000,NA,NA,NA,NA,NA,NA,NA,NA,NA
543,7802,RANGER LAKE,Ontario,605FQQK,9938,NA,NA,46.88,-83.5,465300000,-833000000,NA,NA,NA,NA,NA,NA,NA,NA,NA
544,7848,SELLWOOD JUNCTION,Ontario,6067681,7613,NA,NA,46.85,-81.02,465100000,-810100000,330.4,NA,NA,NA,NA,NA,NA,NA,NA
545,7815,CAPREOL,Ontario,6061176,7607,NA,NA,46.82,-80.97,464900000,-805800000,305.7,NA,NA,NA,NA,NA,NA,NA,NA
546,7785,SEARCHMONT,Ontario,6057678,4097,NA,NA,46.75,-84.08,464500000,-840500000,221,1915,1975,NA,NA,1915,1975,1915,1975
547,7806,RITCHIE FALLS,Ontario,605P162,9913,NA,NA,46.75,-82.27,464500000,-821600000,NA,NA,NA,NA,NA,NA,NA,NA,NA
548,8004,MARTEN RIVER,Ontario,6084R96,9930,NA,NA,46.73,-79.83,464400000,-795000000,NA,NA,NA,NA,NA,NA,NA,NA,NA
549,8905,MARTEN RIVER,Ontario,613D996,7766,NA,NA,46.73,-79.8,464400000,-794800000,287.1,NA,NA,NA,NA,NA,NA,NA,NA
550,7994,DIVER,Ontario,6082025,7640,NA,NA,46.72,-79.5,464300000,-793000000,321,NA,NA,NA,NA,NA,NA,NA,NA
551,7776,SAULT STE. MARIE  WX RADIO,Ontario,6057588,30212,NA,NA,46.71,-84.17,464240000,-841022000,526,NA,NA,NA,NA,NA,NA,NA,NA
552,7816,CARTIER,Ontario,6061263,4108,NA,NA,46.7,-81.57,464200000,-813400000,420.9,1886,1948,NA,NA,1886,1948,1886,1948
553,8022,RED CEDAR LAKE DAM,Ontario,6086930,4203,NA,NA,46.68,-80.02,464100000,-800100000,269.7,1950,1954,NA,NA,1950,1954,1950,1954
554,7866,WANAPITEI DAM,Ontario,6069276,7617,NA,NA,46.65,-80.67,463900000,-804000000,274.3,NA,NA,NA,NA,NA,NA,NA,NA
555,7850,SUDBURY OVERLAP,Ontario,6068144,51257,NA,NA,46.63,-80.8,463732000,-804752000,348.4,NA,NA,NA,NA,NA,NA,NA,NA
556,7851,SUDBURY CLIMATE,Ontario,6068145,49508,71733,TSB,46.63,-80.8,463756090,-804746080,348,2011,2016,2011,2016,2011,2016,NA,NA
557,7856,SUDBURY A,Ontario,6068150,4132,71730,YSB,46.63,-80.8,463732000,-804752000,348.39,1954,2013,1954,2013,1954,2013,1954,2013
558,7859,SUDBURY A,Ontario,6068153,50840,71730,YSB,46.63,-80.8,463732000,-804752000,348.4,2013,2016,2013,2016,2013,2016,NA,NA
559,7768,PESHU LAKE,Ontario,6056389,4087,NA,NA,46.62,-83.17,463700000,-831000000,NA,1950,1955,NA,NA,1950,1955,1950,1955
560,7852,SUDBURY  CLDN,Ontario,6068146,30188,NA,NA,46.62,-80.79,463729000,-804740000,347,NA,NA,NA,NA,NA,NA,NA,NA
561,7868,WINDY LAKE,Ontario,6069540,7618,NA,NA,46.62,-81.45,463700000,-812700000,333.1,NA,NA,NA,NA,NA,NA,NA,NA
562,7878,WINDY LAKE,Ontario,606RELR,9916,NA,NA,46.62,-81.47,463700000,-812800000,NA,NA,NA,NA,NA,NA,NA,NA,NA
563,7761,MISSISSAGIPARK,Ontario,60552J0,9907,NA,NA,46.6,-82.75,463600000,-824500000,NA,NA,NA,NA,NA,NA,NA,NA,NA
564,7814,CAMP 8,Ontario,6061149,9911,NA,NA,46.58,-81.42,463500000,-812500000,NA,NA,NA,NA,NA,NA,NA,NA,NA
565,7870,KUKAGAMI,Ontario,606D2FN,9918,NA,NA,46.58,-81.42,463500000,-812500000,NA,NA,NA,NA,NA,NA,NA,NA,NA
566,7875,HALF-WAY LAKE,Ontario,606L1EJ,9919,NA,NA,46.58,-81.42,463500000,-812500000,NA,NA,NA,NA,NA,NA,NA,NA,NA
567,7877,MONETVILLE,Ontario,606NKDQ,9917,NA,NA,46.58,-80.42,463500000,-802500000,NA,NA,NA,NA,NA,NA,NA,NA,NA
568,7829,GARSON,Ontario,6062665,4116,NA,NA,46.57,-80.87,463400000,-805200000,289.6,1962,1965,NA,NA,1962,1965,1962,1965
569,7777,SAULT STE MARIE,Ontario,6057589,4091,NA,NA,46.53,-84.5,463200000,-843000000,205.7,1949,1959,NA,NA,1949,1959,1949,1959
570,7778,SAULT STE MARIE 2,Ontario,6057590,4092,NA,NA,46.53,-84.33,463200000,-842000000,211.8,1957,2002,NA,NA,1957,2002,1957,2002
571,7781,SAULT STE. MARIE  CLDN,Ontario,6057594,30239,NA,NA,46.52,-84.33,463112000,-841948000,347.5,NA,NA,NA,NA,NA,NA,NA,NA
572,7810,BENNY,Ontario,6060725,4106,NA,NA,46.52,-81.63,463100000,-813800000,386.8,1948,1956,NA,NA,1948,1956,1948,1956
573,7857,SUDBURY CKNC-TV,Ontario,6068151,7615,NA,NA,46.52,-81,463100000,-810000000,304.8,NA,NA,NA,NA,NA,NA,NA,NA
574,7739,ELLIOT LAKE DENISON,Ontario,6052260,4070,NA,NA,46.5,-82.62,463000000,-823700000,434.3,1974,1980,NA,NA,1974,1980,1974,1979
575,7782,SAULT STE M FORESTRY,Ontario,6057595,4094,NA,NA,46.5,-84.37,463000000,-842200000,193.2,1889,1933,NA,NA,1889,1933,1889,1933
576,7784,SAULT STE M SHINGWOUK,Ontario,6057605,4096,NA,NA,46.5,-84.28,463000000,-841700000,182.9,1954,1955,NA,NA,1954,1955,1954,1955
577,7808,SAULT STE. MARIE,Ontario,605PNQQ,9936,NA,NA,46.5,-84.33,463000000,-842000000,NA,NA,NA,NA,NA,NA,NA,NA,NA
578,7779,SAULT STE MARIE A,Ontario,6057591,50092,71260,YAM,46.49,-84.51,462906000,-843035000,192,2012,2016,2012,2016,2012,2016,NA,NA
579,7855,SUDBURY  WX RADIO,Ontario,6068149,30226,NA,NA,46.49,-81.01,462937000,-810032000,291,NA,NA,NA,NA,NA,NA,NA,NA
580,7780,SAULT STE MARIE A,Ontario,6057592,4093,71260,YAM,46.48,-84.51,462900000,-843034000,192,1945,2012,1961,2012,1945,2012,1945,2012
581,7824,CONISTON STP,Ontario,6061850,4113,NA,NA,46.48,-80.85,462900000,-805100000,267.6,1962,2002,NA,NA,1962,2002,1962,2002
582,7825,COPPER CLIFF,Ontario,6061870,4114,NA,NA,46.48,-81.05,462900000,-810300000,274.3,1906,1968,NA,NA,1906,1968,1906,1968
583,7854,SUDBURY,Ontario,6068148,4131,NA,NA,46.48,-80.98,462900000,-805900000,259.1,1887,1977,NA,NA,1887,1977,1914,1977
584,7858,SUDBURY FORESTRY,Ontario,6068152,7616,NA,NA,46.48,-80.93,462900000,-805600000,253,NA,NA,NA,NA,NA,NA,NA,NA
585,7773,RICHARDS LANDING,Ontario,6057009,7603,NA,NA,46.47,-84.02,462800000,-840100000,NA,NA,NA,NA,NA,NA,NA,NA,NA
586,7783,SAULT STE M INSECTARY,Ontario,6057597,4095,NA,NA,46.47,-84.47,462800000,-842800000,190.5,1951,1954,NA,NA,1951,1954,1951,1954
587,7823,CONISTON,Ontario,6061847,4112,NA,NA,46.47,-80.82,462800000,-804900000,237.4,1921,1976,NA,NA,1921,1976,1921,1976
588,7860,SUDBURY MOE,Ontario,6068155,4133,NA,NA,46.47,-81.03,462800000,-810200000,259.1,1977,1979,NA,NA,1977,1979,1977,1979
589,7861,SUDBURY SCIENCE NORTH,Ontario,6068158,4134,NA,NA,46.47,-81,462800000,-810000000,263,1986,1996,NA,NA,1986,1996,1986,1996
590,7992,CRYSTAL FALLS,Ontario,6081928,4192,NA,NA,46.45,-79.87,462700000,-795200000,227.1,1922,1988,NA,NA,1922,1988,1922,1988
591,7993,CRYSTAL FALLS,Ontario,6081930,43520,NA,NA,46.44,-79.91,462637000,-795422000,235,2004,2006,NA,NA,2004,2006,2004,2006
592,7732,BAR RIVER,Ontario,6050NNP,4063,NA,NA,46.43,-84.05,462600000,-840300000,180,1988,1992,NA,NA,1988,1992,1988,1992
593,7760,MISSISSAGI ONT HYDRO,Ontario,6055210,4083,NA,NA,46.43,-83.38,462600000,-832300000,225.6,1970,1997,NA,NA,1970,1997,1970,1997
594,7809,AGNEW MINE,Ontario,6060070,4105,NA,NA,46.43,-81.62,462600000,-813700000,305.1,1978,1983,NA,NA,1978,1983,1978,1983
595,7833,LIVELY,Ontario,6064460,4118,NA,NA,46.43,-81.15,462600000,-810900000,282,1981,1991,NA,NA,1981,1991,1981,1991
596,7865,WAHNAPITAE-STOKES,Ontario,6069197,4138,NA,NA,46.43,-80.72,462600000,-804300000,750,1990,1991,NA,NA,1990,1991,1990,1991
597,7869,WARREN,Ontario,6069K90,4136,NA,NA,46.43,-80.32,462600000,-801900000,212,1987,1998,NA,NA,1987,1998,1987,1998
598,7741,ELLIOT LAKE STANLEIGH,Ontario,6052268,4071,NA,NA,46.42,-82.65,462500000,-823900000,374,1984,1997,NA,NA,1984,1997,1984,1997
599,8031,FISH HATCHERY,Ontario,608BMJ6,9935,NA,NA,46.42,-78.9,462500000,-785400000,NA,NA,NA,NA,NA,NA,NA,NA,NA
600,7740,ELLIOT LAKE MOE,Ontario,6052264,7596,NA,NA,46.4,-82.67,462400000,-824000000,274,NA,NA,NA,NA,NA,NA,NA,NA
601,7737,ELLIOT LAKE,Ontario,6052258,4069,NA,NA,46.38,-82.65,462300000,-823900000,312.4,1959,1973,NA,NA,1959,1973,1959,1973
602,7863,TURBINE,Ontario,6068980,4135,NA,NA,46.38,-81.57,462300000,-813400000,205.7,1914,1990,NA,NA,1914,1990,1914,1990
603,8030,CACHE BAY,Ontario,608A06G,4185,NA,NA,46.38,-80.02,462300000,-800100000,198.1,1981,1985,NA,NA,1981,1985,1981,1985
604,7847,ST CHARLES,Ontario,6067308,4130,NA,NA,46.37,-80.52,462200000,-803100000,235.9,1979,1984,NA,NA,1979,1984,1979,1984
605,7998,LA CAVE,Ontario,6084278,4195,NA,NA,46.37,-78.73,462200000,-784400000,172.2,1950,1975,NA,NA,1950,1975,1950,1975
606,8024,STURGEON FALLS,Ontario,6088144,4205,NA,NA,46.37,-79.93,462200000,-795600000,201,1883,2002,NA,NA,1883,2002,1883,2002
607,8039,NORTH BAY 22 NRWC WEATHER OFFICE,Ontario,608N70M,10710,NA,WNN,46.37,-79.42,462200000,-792500000,NA,NA,NA,NA,NA,NA,NA,NA,NA
608,8008,NORTH BAY A,Ontario,6085680,52318,71731,YYB,46.36,-79.42,462150000,-792527000,370.3,2014,2016,2014,2016,2014,2016,NA,NA
609,8009,NORTH BAY,Ontario,6085681,10788,NA,ZNB,46.36,-79.42,462149000,-792523000,363.6,NA,NA,NA,NA,NA,NA,NA,NA
610,8013,NORTH BAY OVERLAP,Ontario,6085699,53860,NA,NA,46.36,-79.42,462150000,-792527000,370.3,NA,NA,NA,NA,NA,NA,NA,NA
611,8014,NORTH BAY A,Ontario,6085700,4201,71731,YYB,46.36,-79.42,462149000,-792522000,370.3,1939,2013,1953,2013,1939,2013,1939,2013
612,8015,NORTH BAY A,Ontario,6085701,50839,NA,YYB,46.36,-79.42,462150000,-792527000,370.3,2013,2016,2013,2016,2013,2014,NA,NA
613,7738,ELLIOT LAKE A,Ontario,6052259,7595,NA,YEL,46.35,-82.56,462105000,-823341000,331.3,1994,2012,1994,2012,1995,2012,1995,2011
614,7798,AMOD NORTH BAY INSTRUMENT STORAGE,Ontario,605AMOD,42544,NA,NIS,46.35,-79.42,462100000,-792500000,0,NA,NA,NA,NA,NA,NA,NA,NA
615,7770,RAYNER,Ontario,6056907,4088,NA,NA,46.33,-83.5,462000000,-833000000,243.8,1950,1970,NA,NA,1950,1970,1950,1970
616,7826,DESBARATS,Ontario,6062006,7609,NA,NA,46.33,-83.92,462000000,-835500000,181.4,NA,NA,NA,NA,NA,NA,NA,NA
617,7864,WABAGISHIK,Ontario,6069165,4137,NA,NA,46.32,-81.52,461900000,-813100000,213.4,1978,1989,NA,NA,1978,1989,1978,1989
618,8010,NORTH BAY,Ontario,6085682,4200,NA,NA,46.32,-79.47,461900000,-792800000,201.2,1887,1982,NA,NA,1887,1982,1887,1982
619,8012,NORTH BAY CLDN,Ontario,6085698,44265,NA,YYB,46.32,-79.48,461920028,-792902004,213,NA,NA,NA,NA,NA,NA,NA,NA
620,8017,NORTH BAY NIPISSING(AUT),Ontario,6085703,7647,NA,NA,46.32,-79.48,461900000,-792900000,203.5,1994,1998,1994,1998,1994,1998,NA,NA
621,8020,NORTH BAY WEATHER OFFICE,Ontario,6085P04,8996,NA,WYB,46.32,-79.45,461900000,-792700000,NA,NA,NA,NA,NA,NA,NA,NA,NA
622,8011,NORTH BAY  WX RADIO,Ontario,6085683,30218,NA,NA,46.31,-79.43,461818000,-792538000,274,NA,NA,NA,NA,NA,NA,NA,NA
623,7733,BRUCE MINES,Ontario,6051027,4068,NA,NA,46.3,-83.92,461800000,-835500000,181.4,1898,1914,NA,NA,1898,1914,1898,1914
624,7734,BRUCE MINES RADIGAN,Ontario,605102G,4067,NA,NA,46.3,-83.75,461800000,-834500000,178,1978,1980,NA,NA,1978,1980,1978,1980
625,8000,LAKE TALON,Ontario,6084304,7642,NA,NA,46.3,-79.08,461800000,-790500000,NA,NA,NA,NA,NA,NA,NA,NA,NA
626,8018,NORTH BAY OWRC,Ontario,6085704,4202,NA,NA,46.3,-79.47,461800000,-792800000,198.1,1960,1971,NA,NA,1960,1971,1960,1971
627,7752,IRON BRIDGE,Ontario,6053804,4079,NA,NA,46.28,-83.23,461700000,-831400000,182.9,1974,1975,NA,NA,1974,1975,1974,1975
628,7753,IRON BRIDGE,Ontario,6053805,44947,NA,NA,46.28,-83.25,461648000,-831446026,190,2006,2008,NA,NA,2006,2008,2006,2006
629,7827,ESPANOLA,Ontario,6062338,7610,NA,NA,46.28,-81.73,461700000,-814400000,208.8,NA,NA,NA,NA,NA,NA,NA,NA
630,7839,MCVITTIES,Ontario,6065043,4124,NA,NA,46.28,-80.85,461700000,-805100000,213.4,1950,1974,NA,NA,1950,1974,1950,1974
631,7751,IRON BRIDGE,Ontario,6053803,4078,NA,NA,46.27,-83.35,461600000,-832100000,198,1988,1991,NA,NA,1988,1991,1988,1991
632,7788,THESSALON (KIRKWOOD),Ontario,6058KM2,9941,NA,NA,46.27,-83.57,461600000,-833400000,NA,NA,NA,NA,NA,NA,NA,NA,NA
633,7812,BURWASH,Ontario,6061066,7606,NA,NA,46.27,-80.82,461600000,-804900000,228.9,NA,NA,NA,NA,NA,NA,NA,NA
634,7867,WEBBWOOD,Ontario,6069428,4139,NA,NA,46.27,-81.88,461600000,-815300000,196,1983,1986,NA,NA,1983,1986,1983,1986
635,8019,NORTH BAY TEST BED,Ontario,6085710,45687,NA,TNB,46.27,-79.42,461556000,-792506000,215.8,NA,NA,NA,NA,NA,NA,NA,NA
636,8005,MATTAWA,Ontario,6085023,4199,NA,NA,46.25,-78.68,461500000,-784100000,171.3,1882,1899,NA,NA,1882,1899,1882,1899
637,8023,RUTHERGLEN,Ontario,6087255,4204,NA,NA,46.25,-79.07,461500000,-790400000,240.5,1891,1940,NA,NA,1891,1940,1891,1940
638,8033,CALVIN,Ontario,608J0H4,9934,NA,NA,46.25,-78.92,461500000,-785500000,NA,NA,NA,NA,NA,NA,NA,NA,NA
639,7787,THOMPSON,Ontario,6058245,7604,NA,NA,46.23,-83.15,461400000,-830900000,NA,NA,NA,NA,NA,NA,NA,NA,NA
640,7754,KENTVALE,Ontario,6054078,4080,NA,NA,46.22,-84.07,461300000,-840400000,205,1988,1988,NA,NA,1988,1988,1988,1988
641,7835,MASSEY,Ontario,6065005,4120,NA,NA,46.22,-82.07,461300000,-820400000,187.5,1963,1964,NA,NA,1963,1964,1963,1964
642,7842,MONETVILLE 2,Ontario,6065252,53618,NA,NA,46.22,-80.3,461255000,-801811000,205,2015,2016,NA,NA,2015,2016,NA,NA
643,7990,BONFIELD,Ontario,6080HB6,4186,NA,NA,46.22,-79.13,461300000,-790800000,265,1983,1992,NA,NA,1983,1992,1983,1992
644,7730,BLIND RIVER,Ontario,6050801,4064,NA,NA,46.2,-83,461200000,-830000000,183.2,1926,1959,NA,NA,1926,1959,1926,1959
645,7731,BLIND RIVER HYDRO CENTRE,Ontario,6050805,4065,NA,NA,46.2,-83.02,461200000,-830100000,189,1982,1989,NA,NA,1982,1989,1982,1989
646,7774,ST JOSEPH ISLAND MTN,Ontario,6057327,4089,NA,NA,46.2,-83.95,461200000,-835700000,335.3,1970,1971,NA,NA,1970,1971,1970,1971
647,7789,WALFORD,Ontario,6059210,4100,NA,NA,46.2,-82.23,461200000,-821400000,213.7,1976,1979,NA,NA,1976,1979,1976,1979
648,7790,WALFORD,Ontario,6059211,4101,NA,NA,46.2,-82.28,461200000,-821700000,182.9,1979,1979,NA,NA,1979,1979,1979,1979
649,7836,MASSEY,Ontario,6065006,4121,NA,NA,46.19,-82.02,461135088,-820129022,200,1983,2016,NA,NA,1983,2016,1983,2006
650,7756,LITTLE RAPIDS,Ontario,6054456,7600,NA,NA,46.18,-83.58,461100000,-833500000,NA,NA,NA,NA,NA,NA,NA,NA,NA
651,8132,DES JOACHIMS,Ontario,6102009,4269,NA,NA,46.18,-77.7,461100000,-774200000,129.5,1950,1977,NA,NA,1950,1977,1950,1977
652,8292,ROLPHTON,Ontario,6107182,4374,NA,NA,46.18,-77.65,461100000,-773900000,136.5,1990,2001,NA,NA,1990,2001,1990,2001
653,8293,ROLPHTON NPD,Ontario,6107184,4375,NA,NA,46.18,-77.67,461100000,-774000000,121.9,1977,1987,NA,NA,1977,1987,1977,1987
654,8294,ROLPHTON NPD AP STN A,Ontario,610718D,7690,NA,NA,46.18,-77.67,461100000,-774000000,NA,NA,NA,NA,NA,NA,NA,NA,NA
655,8332,STONECLIFFE,Ontario,610Q0NR,9956,NA,NA,46.18,-77.87,461100000,-775200000,NA,NA,NA,NA,NA,NA,NA,NA,NA
656,7988,BIG CHAUDIERE FALLS,Ontario,6080729,4191,NA,NA,46.15,-80.02,460900000,-800100000,NA,1918,1933,NA,NA,1918,1933,1918,1933
657,8036,KIOSK,Ontario,608MK0J,10703,NA,NA,46.15,-78.82,460900000,-784900000,753,NA,NA,NA,NA,NA,NA,NA,NA
658,8312,STONECLIFFE,Ontario,6108060,4388,NA,NA,46.15,-78.1,460900000,-780600000,149,1876,1921,NA,NA,1876,1921,1876,1921
659,7841,MONETVILLE,Ontario,6065250,4125,NA,NA,46.14,-80.31,460833006,-801825044,221,1963,2012,NA,NA,1963,2012,1963,2006
660,7996,FRENCH R CHAUDIERE DAM,Ontario,6082612,4194,NA,NA,46.13,-80.02,460800000,-800100000,198.1,1969,2003,NA,NA,1969,2003,1969,2003
661,8465,NIPISSING,Ontario,6115668,4478,NA,NA,46.13,-79.53,460800000,-793200000,NA,1964,1966,NA,NA,1964,1966,1964,1966
662,8495,POWASSAN,Ontario,6116702,4493,NA,NA,46.12,-79.25,460700000,-791500000,274.3,1974,2010,NA,NA,1974,2010,1974,2006
663,8035,KIOSK,Ontario,608MB0K,9958,NA,NA,46.1,-78.88,460600000,-785300000,NA,NA,NA,NA,NA,NA,NA,NA,NA
664,8464,NIPISSING,Ontario,6115667,7720,NA,NA,46.1,-79.43,460600000,-792600000,214.6,NA,NA,NA,NA,NA,NA,NA,NA
665,8466,NIPISSING,Ontario,6115669,45547,NA,NA,46.1,-79.52,460601032,-793114040,213.4,2006,2016,NA,NA,2006,2016,2006,2006
666,8578,POWASSAN,Ontario,611F701,9926,NA,NA,46.1,-79.37,460600000,-792200000,NA,NA,NA,NA,NA,NA,NA,NA,NA
667,7997,KIOSHKOKWI LAKE,Ontario,6084201,7641,NA,NA,46.08,-78.88,460500000,-785300000,301.1,NA,NA,NA,NA,NA,NA,NA,NA
668,8362,BINGHAM CHUTE,Ontario,6110745,4417,NA,NA,46.08,-79.4,460500000,-792400000,242.3,1933,1970,NA,NA,1933,1970,1933,1970
669,8496,POWASSAN VALLEYVIEW,Ontario,6116703,4494,NA,NA,46.08,-79.35,460500000,-792100000,274.3,1970,1974,NA,NA,1970,1974,1970,1974
670,8097,CHALK RIVER,Ontario,6101328,7993,NA,NA,46.07,-77.4,460400000,-772400000,122,NA,NA,NA,NA,NA,NA,NA,NA
671,8098,CHALK RIVER,Ontario,6101329,7975,NA,NA,46.07,-77.4,460400000,-772400000,122,NA,NA,NA,NA,NA,NA,NA,NA
672,8260,PERCH LAKE MAIN IHD,Ontario,6106378,4350,NA,NA,46.07,-77.63,460400000,-773800000,167.6,1967,1967,NA,NA,1967,1967,1967,1967
673,8586,RESTOULE,Ontario,611P00F,9940,NA,NA,46.07,-79.75,460400000,-794500000,NA,NA,NA,NA,NA,NA,NA,NA,NA
674,8100,CHALK RIVER AECL,Ontario,6101335,4243,NA,NA,46.05,-77.37,460300000,-772200000,121.9,1960,2016,NA,NA,1960,2016,1961,2006
675,8101,CHALK RIVER AP STN A,Ontario,610134A,7665,NA,NA,46.05,-77.37,460300000,-772200000,121.9,NA,NA,NA,NA,NA,NA,NA,NA
676,8542,TROUT CREEK,Ontario,6118938,4524,NA,NA,46.03,-79.38,460200000,-792300000,333.1,1981,2006,NA,NA,1981,2006,1981,2006
677,7876,KILLARNEY PK,Ontario,606M1BN,9923,NA,NA,46,-81.4,460000000,-812400000,NA,NA,NA,NA,NA,NA,NA,NA,NA
678,8041,CLAPPERTON ISLAND,Ontario,6091540,7653,NA,NA,46,-82.23,460000000,-821400000,NA,NA,NA,NA,NA,NA,NA,NA,NA
679,8099,CHALK RIVER 2,Ontario,6101333,7664,NA,NA,46,-77.43,460000000,-772600000,167.6,NA,NA,NA,NA,NA,NA,NA,NA
680,8570,EMERALD LAKE,Ontario,611B296,9921,NA,NA,46,-80,460000000,-800000000,NA,NA,NA,NA,NA,NA,NA,NA,NA
